{"type": "FeatureCollection", "features": [{"type": "Feature", "geometry": {"type": "Polygon", "coordinates": [[[85.17903304079807, 27.970040325704968], [85.17903455615554, 27.96995009811013], [85.17883130347772, 27.96994740718655], [85.17883281899708, 27.969857179600627], [85.17873119275315, 27.969855834031428], [85.17863259787173, 27.969674033231986], [85.17842934575677, 27.969671341738955], [85.1784308615929, 27.969581114169625], [85.1783292356304, 27.96957976831571], [85.17833075154397, 27.969489540750217], [85.17812901588441, 27.969396621270995], [85.17813053195285, 27.969306393713175], [85.17823215764794, 27.96930773970182], [85.17823367362492, 27.96921751213764], [85.17813204801428, 27.969216166154094], [85.17813356406867, 27.96912593859375], [85.17823518959486, 27.969127284572206], [85.17823822151371, 27.968946829437556], [85.17813659615643, 27.96894548346929], [85.17813962821612, 27.968765028339792], [85.1782412534045, 27.96876637429787], [85.17824731710185, 27.96840546400339], [85.17834894195944, 27.968406809866092], [85.17835045778179, 27.96831658228424], [85.17845208256195, 27.968317928066853], [85.17845359829283, 27.96822770047864], [85.17855522299557, 27.96822904618118], [85.17855673863497, 27.968138818586606], [85.17865836326028, 27.96814016420905], [85.17876301881257, 27.967961054543217], [85.17896626776047, 27.967963745392765], [85.17896475247288, 27.968053973010225], [85.17906637704179, 27.9680553183276], [85.17916497135931, 27.96823711882147], [85.17946984563588, 27.96824115412918], [85.17946833074949, 27.96833138176831], [85.17956995560682, 27.96833272672598], [85.17956844079788, 27.968422954368943], [85.17967006574666, 27.968424299256707], [85.17976866140134, 27.96860609937197], [85.18007353681753, 27.96861013339083], [85.18007202240979, 27.968700361055458], [85.18017364764701, 27.968701705583506], [85.18027224439253, 27.96888350538239], [85.18057712067393, 27.968887538322086], [85.18057560666743, 27.96897776600838], [85.18047398114884, 27.968976421765056], [85.18047095294591, 27.969156877123673], [85.1805725786334, 27.96915822137717], [85.18057106460589, 27.96924844905968], [85.18046943883394, 27.969247104801095], [85.18046641058893, 27.969427560152162], [85.18036478465508, 27.969426215808404], [85.18036327043762, 27.969516443476966], [85.18026164442632, 27.969515099053126], [85.18015698962826, 27.969694209867257], [85.1799537373029, 27.969691520624224], [85.17995222272657, 27.969781748268645], [85.17974897026033, 27.96977905871543], [85.17974745550809, 27.96986928634842], [85.17944257660797, 27.96986525144083], [85.17944106159534, 27.96995547905729], [85.17903304079807, 27.970040325704968]]]}, "properties": {"name": "Breach notch (Froehlich 2008)", "value": 46.8, "unit": "m base width"}}]}