<?xml version="1.0" encoding="UTF-8"?>
<kml xmlns="http://www.opengis.net/kml/2.2" xmlns:gx="http://www.google.com/kml/ext/2.2">
    <Document id="17">
        <Style id="22">
            <PolyStyle id="23">
                <color>7fff7f00</color>
                <colorMode>normal</colorMode>
                <fill>1</fill>
                <outline>1</outline>
            </PolyStyle>
        </Style>
        <name>breach</name>
        <Placemark id="19">
            <name>Breach notch (Froehlich 2008)</name>
            <styleUrl>#22</styleUrl>
            <Polygon id="18">
                <outerBoundaryIs>
                    <LinearRing id="20">
                        <coordinates>85.17903304079807,27.970040325704968,0.0 85.17944106159534,27.96995547905729,0.0 85.17944257660797,27.96986525144083,0.0 85.17974745550809,27.96986928634842,0.0 85.17974897026033,27.96977905871543,0.0 85.17995222272657,27.969781748268645,0.0 85.1799537373029,27.969691520624224,0.0 85.18015698962826,27.969694209867257,0.0 85.18026164442632,27.969515099053126,0.0 85.18036327043762,27.969516443476966,0.0 85.18036478465508,27.969426215808404,0.0 85.18046641058893,27.969427560152162,0.0 85.18046943883394,27.969247104801095,0.0 85.18057106460589,27.96924844905968,0.0 85.1805725786334,27.96915822137717,0.0 85.18047095294591,27.969156877123673,0.0 85.18047398114884,27.968976421765056,0.0 85.18057560666743,27.96897776600838,0.0 85.18057712067393,27.968887538322086,0.0 85.18027224439253,27.96888350538239,0.0 85.18017364764701,27.968701705583506,0.0 85.18007202240979,27.968700361055458,0.0 85.18007353681753,27.96861013339083,0.0 85.17976866140134,27.96860609937197,0.0 85.17967006574666,27.968424299256707,0.0 85.17956844079788,27.968422954368943,0.0 85.17956995560682,27.96833272672598,0.0 85.17946833074949,27.96833138176831,0.0 85.17946984563588,27.96824115412918,0.0 85.17916497135931,27.96823711882147,0.0 85.17906637704179,27.9680553183276,0.0 85.17896475247288,27.968053973010225,0.0 85.17896626776047,27.967963745392765,0.0 85.17876301881257,27.967961054543217,0.0 85.17865836326028,27.96814016420905,0.0 85.17855673863497,27.968138818586606,0.0 85.17855522299557,27.96822904618118,0.0 85.17845359829283,27.96822770047864,0.0 85.17845208256195,27.968317928066853,0.0 85.17835045778179,27.96831658228424,0.0 85.17834894195944,27.968406809866092,0.0 85.17824731710185,27.96840546400339,0.0 85.1782412534045,27.96876637429787,0.0 85.17813962821612,27.968765028339792,0.0 85.17813659615643,27.96894548346929,0.0 85.17823822151371,27.968946829437556,0.0 85.17823518959486,27.969127284572206,0.0 85.17813356406867,27.96912593859375,0.0 85.17813204801428,27.969216166154094,0.0 85.17823367362492,27.96921751213764,0.0 85.17823215764794,27.96930773970182,0.0 85.17813053195285,27.969306393713175,0.0 85.17812901588441,27.969396621270995,0.0 85.17833075154397,27.969489540750217,0.0 85.1783292356304,27.96957976831571,0.0 85.1784308615929,27.969581114169625,0.0 85.17842934575677,27.969671341738955,0.0 85.17863259787173,27.969674033231986,0.0 85.17873119275315,27.969855834031428,0.0 85.17883281899708,27.969857179600627,0.0 85.17883130347772,27.96994740718655,0.0 85.17903455615554,27.96995009811013,0.0 85.17903304079807,27.970040325704968,0.0</coordinates>
                    </LinearRing>
                </outerBoundaryIs>
            </Polygon>
        </Placemark>
    </Document>
</kml>
