<?xml version="1.0" encoding="UTF-8"?>
<kml xmlns="http://www.opengis.net/kml/2.2" xmlns:gx="http://www.google.com/kml/ext/2.2">
    <Document id="9">
        <Style id="14">
            <PolyStyle id="15">
                <color>7fff7f00</color>
                <colorMode>normal</colorMode>
                <fill>1</fill>
                <outline>1</outline>
            </PolyStyle>
        </Style>
        <name>dam</name>
        <Placemark id="11">
            <name>Dam embankment</name>
            <styleUrl>#14</styleUrl>
            <Polygon id="10">
                <outerBoundaryIs>
                    <LinearRing id="12">
                        <coordinates>85.17779836004323,27.97092645087029,0.0 85.17830649608476,27.970933181646945,0.0 85.17830801210359,27.970842954100345,0.0 85.1785112664004,27.970845645875794,0.0 85.17861592506921,27.970666536523474,0.0 85.17871755206625,27.970667882213508,0.0 85.17871906772618,27.970577654642756,0.0 85.17882069464578,27.970579000252698,0.0 85.17892838346633,27.970219435451302,0.0 85.17913315195194,27.970131898658018,0.0 85.17913466723196,27.97004167105935,0.0 85.17923629367287,27.97004301633873,0.0 85.17923780886142,27.969952788733714,0.0 85.17944106159534,27.96995547905729,0.0 85.17944257660797,27.96986525144083,0.0 85.17974745550809,27.96986928634842,0.0 85.17974897026033,27.96977905871543,0.0 85.17995222272657,27.969781748268645,0.0 85.1799537373029,27.969691520624224,0.0 85.18015698962826,27.969694209867257,0.0 85.18026164442632,27.969515099053126,0.0 85.18036327043762,27.969516443476966,0.0 85.18036478465508,27.969426215808404,0.0 85.18046641058893,27.969427560152162,0.0 85.18046943883394,27.969247104801095,0.0 85.18057106460589,27.96924844905968,0.0 85.1805725786334,27.96915822137717,0.0 85.18047095294591,27.969156877123673,0.0 85.18047398114884,27.968976421765056,0.0 85.18057560666743,27.96897776600838,0.0 85.18058014866591,27.968707082945738,0.0 85.18068177393816,27.968708427098804,0.0 85.1806878295002,27.968347516310644,0.0 85.18078945444165,27.96834886036837,0.0 85.18069085723917,27.96816706090901,0.0 85.18079248201173,27.96816840495656,0.0 85.18080156455376,27.96762703869092,0.0 85.18069994028788,27.96762569467389,0.0 85.18070296791471,27.967445239252108,0.0 85.18060134382475,27.96744389517026,0.0 85.18070599551352,27.967264783825296,0.0 85.18060437159245,27.967263439753612,0.0 85.1806058854658,27.96717321204341,0.0 85.18050426163617,27.967171867901826,0.0 85.18050274767837,27.967262095606948,0.0 85.18029949987127,27.967259407088626,0.0 85.18030101399793,27.96716917939368,0.0 85.17989451880563,27.967163801477483,0.0 85.17989300434117,27.96725402915208,0.0 85.17979138047617,27.967252684480467,0.0 85.17979289502507,27.967162456810964,0.0 85.17958964748499,27.96715976725293,0.0 85.17948499411399,27.967338877668638,0.0 85.17938337019261,27.967337532691964,0.0 85.17938185529191,27.967427760338595,0.0 85.17928023129308,27.96742641528184,0.0 85.17927871630091,27.96751664292212,0.0 85.17917709222466,27.96751529778528,0.0 85.17917557714104,27.967605525419206,0.0 85.17907395298734,27.967604180202287,0.0 85.17907243781225,27.967694407829867,0.0 85.17897081358113,27.967693062532856,0.0 85.1789692983146,27.967783290154088,0.0 85.17886767400603,27.96778194477699,0.0 85.17886464328302,27.96796240000549,0.0 85.17865987880822,27.96804993660814,0.0 85.17865836326028,27.96814016420905,0.0 85.17855673863497,27.968138818586606,0.0 85.17855522299557,27.96822904618118,0.0 85.17845359829283,27.96822770047864,0.0 85.17845208256195,27.968317928066853,0.0 85.17835045778179,27.96831658228424,0.0 85.17834894195944,27.968406809866092,0.0 85.17824731710185,27.96840546400339,0.0 85.1782412534045,27.96876637429787,0.0 85.17813962821612,27.968765028339792,0.0 85.17813659615643,27.96894548346929,0.0 85.17823822151371,27.968946829437556,0.0 85.17823518959486,27.969127284572206,0.0 85.17813356406867,27.96912593859375,0.0 85.17813204801428,27.969216166154094,0.0 85.17823367362492,27.96921751213764,0.0 85.17823215764794,27.96930773970182,0.0 85.17813053195285,27.969306393713175,0.0 85.17812749980895,27.96948684882756,0.0 85.17802587395195,27.969485502753738,0.0 85.1780213254301,27.969756185400584,0.0 85.17791969932678,27.96975483923648,0.0 85.17791818305433,27.96984506677781,0.0 85.17801980924212,27.969846412947014,0.0 85.1780182930471,27.969936640492197,0.0 85.17791666677486,27.9699352943179,0.0 85.17791363419488,27.97011574939427,0.0 85.17781200776074,27.970114403134787,0.0 85.17780745858474,27.970385085724622,0.0 85.17770583190425,27.970383739374856,0.0 85.17780139291847,27.970745995826775,0.0 85.17769976590014,27.97074464945663,0.0 85.17769824938156,27.97083487697392,0.0 85.17779987648436,27.970836223349163,0.0 85.17779836004323,27.97092645087029,0.0</coordinates>
                    </LinearRing>
                </outerBoundaryIs>
            </Polygon>
        </Placemark>
    </Document>
</kml>
