{"type": "FeatureCollection", "features": [{"type": "Feature", "geometry": {"type": "Polygon", "coordinates": [[[85.18570131650266, 27.996751509821546], [85.18570433951136, 27.99657105466213], [85.18539938449193, 27.996567029440104], [85.1855040594771, 27.996387916111708], [85.18540240798009, 27.996386574306097], [85.18540391971368, 27.9962963467372], [85.18530226830825, 27.99629500486158], [85.18520364069428, 27.996113207789605], [85.18500033825669, 27.996110523683235], [85.18500185030756, 27.996020296130865], [85.18480006028012, 27.995927384190836], [85.18480610906224, 27.995566474004324], [85.18470445837535, 27.995565131718806], [85.18470597063795, 27.995474904174102], [85.18460432004264, 27.995473561818578], [85.18460583238281, 27.995383334277694], [85.18450418187905, 27.995381991852167], [85.18450569429679, 27.9952917643151], [85.18440404388461, 27.99529042181957], [85.18430541863216, 27.995108624191356], [85.18400046796602, 27.995104596059495], [85.18400198078558, 27.99501436854403], [85.1839003306621, 27.995013025688337], [85.18380170650202, 27.99483122774318], [85.1835968934845, 27.994918769174355], [85.18359840662833, 27.994828541676696], [85.18349675670198, 27.994827198530828], [85.18349826992338, 27.99473697103699], [85.18339662008862, 27.994735627821125], [85.18339813338756, 27.994645400331105], [85.18329648364436, 27.994644057045246], [85.18329799702087, 27.994553829559045], [85.18319634736923, 27.99455248620319], [85.18319786082331, 27.994462258720805], [85.18299607532637, 27.994369344320543], [85.18299910253776, 27.994188889369816], [85.18289745324539, 27.994187545809048], [85.18289896692514, 27.994097318336866], [85.18279731772434, 27.994095974706106], [85.18279883148163, 27.99400574723775], [85.1826971823724, 27.994004403536987], [85.18269869620727, 27.993914176072465], [85.18259704718957, 27.99391283230171], [85.18259856110201, 27.993822604841], [85.18239677733133, 27.993729689632623], [85.18239980545937, 27.993549234725243], [85.18229815680095, 27.99354789074959], [85.18230118507009, 27.993367435847333], [85.1824028335594, 27.99336877981282], [85.18240434759889, 27.993278552354717], [85.18230269919415, 27.993277208394318], [85.1823042133112, 27.993186980940045], [85.18210091669187, 27.993184292804184], [85.18210697376644, 27.99282338301514], [85.1820053258055, 27.992822038854936], [85.18200835446986, 27.992641583963024], [85.18190670668507, 27.992640239737913], [85.18191427864608, 27.992189102511514], [85.18181263129104, 27.992187758236753], [85.18181414574677, 27.992097530792773], [85.18191579301725, 27.992098875062453], [85.18191882173858, 27.99191842016056], [85.18202046884694, 27.991919764344992], [85.18202501162271, 27.991649081967452], [85.18212665848445, 27.991650426061565], [85.1821312009435, 27.991379743657426], [85.18223284755858, 27.991381087661228], [85.18223436161303, 27.99129086018558], [85.18213271508249, 27.99128951618686], [85.18213574333947, 27.991109061241957], [85.18203409698505, 27.991107717178338], [85.18203561118757, 27.99101748970908], [85.1819339649247, 27.991016145575482], [85.18193547920477, 27.990925918110044], [85.18183383303345, 27.99092457390646], [85.18183534739106, 27.990834346444846], [85.18163356975825, 27.990741430369944], [85.1816365987766, 27.990560975460767], [85.18143482182717, 27.990468059122506], [85.18143785114165, 27.990287604226104], [85.1813362055972, 27.990286259682787], [85.18133772032849, 27.99019603223778], [85.18143936578838, 27.990197376776017], [85.1814408804281, 27.99010714932466], [85.18133923505275, 27.99010580479152], [85.18134377918346, 27.989835122445168], [85.18124213406875, 27.989833777852212], [85.18124364884953, 27.989743550405993], [85.18114200382637, 27.989742205743063], [85.18114351868466, 27.989651978300667], [85.18104187375305, 27.98965063356776], [85.18104338868888, 27.9895604061292], [85.18084161411369, 27.989467489018722], [85.18084464428844, 27.98928703415564], [85.18074299971605, 27.989285689217887], [85.18084767443517, 27.989106579287515], [85.18064438563553, 27.98910388935731], [85.18064590086745, 27.989013661931534], [85.18074754517922, 27.98901500692908], [85.1807490603196, 27.98892477949696], [85.18064741609236, 27.988923434504503], [85.18065044652113, 27.988742979646656], [85.18054880246999, 27.988741634589307], [85.18055031775839, 27.98865140716358], [85.1803485452967, 27.988558489417077], [85.18035157617659, 27.988378034579682], [85.18024993248464, 27.988376689317512], [85.1802514479986, 27.988286461902014], [85.18004967648083, 27.988193543756097], [85.18005270781183, 27.988013088939145], [85.1801543511516, 27.988014434331074], [85.18015586672205, 27.98792420691563], [85.18005422346681, 27.987922861528787], [85.18005725475571, 27.98774240670428], [85.17995561167655, 27.987741061252564], [85.17995864310647, 27.987560606433195], [85.18006028601656, 27.98756195187474], [85.18006180163646, 27.98747172445808], [85.1799601588109, 27.98747037902163], [85.1799692528902, 27.98692901452575], [85.17986761057884, 27.986927669044775], [85.17987064205154, 27.986747214212915], [85.17997228419384, 27.986748559683708], [85.17997379983514, 27.986658332260802], [85.17987215777738, 27.986656986795097], [85.17987518920799, 27.986476531955674], [85.1799768310967, 27.986477877411197], [85.17997834671695, 27.986387649984508], [85.17987670491277, 27.986386304534076], [85.17988125198504, 27.986115622261718], [85.17977961044144, 27.9861142767515], [85.17988428333146, 27.98593516740718], [85.17978264195693, 27.985933821907146], [85.17978567344436, 27.98575336705775], [85.17968403224589, 27.985752021492846], [85.1796870638743, 27.98557156664859], [85.17978870490373, 27.985572912203317], [85.17979022062286, 27.985482684774215], [85.1795869387401, 27.98547999359988], [85.1796916112643, 27.98530088437276], [85.17958997049547, 27.985299538758248], [85.17959300222276, 27.985119083911577], [85.17949136163, 27.9851177382322], [85.17949439349827, 27.984937283390675], [85.17939275308157, 27.984935937646434], [85.17939881707203, 27.98457502796862], [85.17929717700041, 27.984573682169692], [85.17930020912257, 27.98439322733341], [85.17919856922701, 27.984391881469623], [85.1792000853621, 27.98430165405468], [85.17930172517312, 27.984302999913382], [85.17930475725319, 27.98412254506954], [85.17940639690221, 27.98412389084301], [85.17951713161581, 27.98358387191859], [85.17961877077175, 27.98358521751143], [85.1795231948472, 27.983222962144836], [85.17942155603635, 27.983221616497314], [85.17942307191116, 27.983131389055817], [85.17921979447951, 27.983128697545833], [85.17921827843564, 27.98321892497715], [85.17901500086303, 27.983216233156814], [85.17901348464314, 27.983306460576685], [85.17880869053361, 27.983393995854424], [85.17880565772067, 27.983574450667504], [85.17870401862086, 27.983573104474317], [85.17870250211935, 27.983663331873878], [85.1783975846085, 27.983659292828783], [85.1783960678464, 27.9837495202118], [85.17809115014519, 27.983745480476024], [85.17808963312254, 27.983835707842502], [85.17737815814053, 27.983826279130163], [85.1773796757548, 27.983736051799358], [85.17727803658427, 27.983734704545377], [85.17727651888549, 27.983824931871087], [85.17544701349617, 27.983800668375125], [85.17544549426906, 27.983890895607786], [85.17534385506303, 27.98388954691777], [85.17534537437466, 27.983799319690213], [85.17493881795892, 27.98379392420012], [85.17494033760157, 27.98370369699171], [85.17473705960492, 27.98370099880661], [85.17463846038844, 27.983519195211517], [85.17433354397443, 27.983515147176544], [85.17433506410308, 27.98342491999498], [85.17423342539699, 27.98342357050501], [85.1742349456031, 27.983333343327292], [85.17413330698857, 27.983331993767386], [85.17413482727216, 27.98324176659351], [85.17403318874916, 27.983240416963667], [85.17403470911023, 27.983150189793637], [85.1739330706788, 27.983148840093858], [85.17383447329347, 27.98296703599562], [85.17363119680384, 27.98296433624128], [85.17363271748185, 27.9828741090879], [85.17353107933211, 27.982872759103273], [85.17353260008757, 27.982782531953728], [85.17343096202939, 27.982781181899178], [85.17343248286232, 27.982690954753483], [85.17333084489569, 27.982689604628998], [85.1732322489189, 27.982507800154732], [85.17292733558939, 27.982503749136555], [85.17292885682376, 27.982413522012628], [85.17272558147498, 27.982410820968866], [85.17272710287133, 27.982320593853895], [85.17262546529201, 27.982319243224563], [85.17262394381115, 27.982409470334428], [85.17242066850461, 27.982406768840434], [85.1724221901545, 27.98231654174079], [85.17211727750104, 27.98231248895234], [85.17211575559764, 27.982402716036653], [85.171099379699, 27.982389201813188], [85.1711009024475, 27.982298974780008], [85.1709992649809, 27.982297622950064], [85.17099774214789, 27.982387849978135], [85.17089610460384, 27.98238649806804], [85.17089762752134, 27.98229627104508], [85.17079599006884, 27.98229491906506], [85.17079903605175, 27.9821144650256], [85.17069739877532, 27.982113112980773], [85.1706989218407, 27.98202288596426], [85.17141038233221, 27.982032348666472], [85.17141190479899, 27.981942121612903], [85.17242827668359, 27.981955633329623], [85.17242979829827, 27.981865406223672], [85.17303962126006, 27.981873509621252], [85.17304114236065, 27.981783282483395], [85.17314277946109, 27.98178463278192], [85.173141258445, 27.981874859924886], [85.17334453283601, 27.98187756030704], [85.17334605368308, 27.981787333153857], [85.17344769080464, 27.981788683227272], [85.17344617004208, 27.98187891038556], [85.17364944447533, 27.9818816103175], [85.17364792387474, 27.981971837484743], [85.17395283583092, 27.981975886835176], [85.17395131547683, 27.98206611401648], [85.17415459031848, 27.98206881321846], [85.17425318752761, 27.98225061709636], [85.17445798269513, 27.98216308866422], [85.1744564627495, 27.982253315868537], [85.17486301327773, 27.98225871251242], [85.1748614936631, 27.982348939735882], [85.17506476913844, 27.982351637617796], [85.17506628858405, 27.982261410384126], [85.17516792624774, 27.98226275920742], [85.17516640688666, 27.98235298644619], [85.17536968240418, 27.98235568387788], [85.17537120159626, 27.982265456628898], [85.1755744769729, 27.98226815375022], [85.17557295794983, 27.9823583810094], [85.17658933609991, 27.982371862164673], [85.17659085427786, 27.982281634854495], [85.17669249204702, 27.982282982552206], [85.17669097395355, 27.982373209867486], [85.17679261181425, 27.98237455749526], [85.1767941298232, 27.98228433017488], [85.17709904319388, 27.982288372592674], [85.17710056094226, 27.982198145255737], [85.17740547412265, 27.98220218698288], [85.17740699161048, 27.982111959629396], [85.17761026693017, 27.982114653728768], [85.17761178424198, 27.982024426363836], [85.17771342182785, 27.982025773295874], [85.17771493904812, 27.981935545924575], [85.17791973111612, 27.981848012170598], [85.17792428220666, 27.981577330014815], [85.17802591939108, 27.981578676696262], [85.17803198707546, 27.981217767117204], [85.17813362392886, 27.981219113703233], [85.17813514074788, 27.981128886300223], [85.17803350397901, 27.981127539719285], [85.17803653776504, 27.980947084919674], [85.17824132768529, 27.980859550574255], [85.17814272473778, 27.98067774926628], [85.17824436109117, 27.980679095746712], [85.1782458777836, 27.980588868331058], [85.1783475140595, 27.980590214731357], [85.17835054725427, 27.98040975988607], [85.1784521833682, 27.980411106201146], [85.17835358042095, 27.98022930503574], [85.17845521636586, 27.98023065134063], [85.17845673285419, 27.980140423908484], [85.17855836872162, 27.980141770133255], [85.17855988511842, 27.980051542694756], [85.17866152090838, 27.980052888839396], [85.17876618913988, 27.979873780007857], [85.1789694604169, 27.979876471901612], [85.17897097645464, 27.979786244438966], [85.17907261201917, 27.97978759026821], [85.1790741279654, 27.979697362799204], [85.17917576345243, 27.979698708548323], [85.17917727930714, 27.979608481072972], [85.17927891471672, 27.979609826741964], [85.1792804304799, 27.979519599260264], [85.17948521673827, 27.979432062869833], [85.17938661280598, 27.979250262381203], [85.17948824789158, 27.979251607879768], [85.17948976345772, 27.979161380382845], [85.17969454887111, 27.979073843636353], [85.17969757963031, 27.97889338861585], [85.17990236437477, 27.97880585152475], [85.17990690993297, 27.978535168950234], [85.18011169383247, 27.978447631503084], [85.18001308961928, 27.978265831431827], [85.18021787292032, 27.97817829379522], [85.18022090269432, 27.97799783869864], [85.18032253665312, 27.977999183525732], [85.18032708100807, 27.977728500856152], [85.18053186304172, 27.977640962685513], [85.18053489222466, 27.977460507543295], [85.18043325875877, 27.977459162896775], [85.18043477342421, 27.977368935328858], [85.1805364068056, 27.977370279970295], [85.18054397960518, 27.976919142086402], [85.18064561257113, 27.97692048662737], [85.18054700867593, 27.976738686924023], [85.18075178863279, 27.976651148317345], [85.18075784598625, 27.976290237931746], [85.18085947837483, 27.976291582287065], [85.18086402106287, 27.97602089946939], [85.180965653205, 27.976022243734427], [85.1809686814597, 27.975841788506177], [85.18107031343988, 27.975843132686016], [85.1810763695272, 27.975482222194046], [85.18117800117648, 27.975483566278534], [85.1811795150963, 27.975393338647315], [85.18107788353151, 27.975391994567914], [85.18108091151912, 27.975211539311857], [85.1809792801303, 27.975210195167612], [85.18098079419806, 27.97511996754278], [85.1810824255024, 27.97512131168194], [85.18108545344796, 27.97494085641832], [85.18098382231258, 27.974939512289343], [85.1809898784575, 27.97457860176734], [85.18078813107125, 27.974485685701534], [85.18069255739775, 27.974123430886788], [85.18049081111671, 27.974030514430726], [85.18049383990775, 27.973850059197925], [85.18039220982814, 27.973848714679892], [85.18049686867076, 27.973669603960094], [85.18029512339639, 27.973576687258728], [85.18019955201174, 27.973214432171165], [85.18009792254448, 27.97321308746371], [85.1800994372183, 27.973122859856957], [85.17999780784251, 27.973121515079576], [85.17999932259379, 27.973031287476655], [85.17979757894541, 27.972938370113038], [85.17980060875078, 27.97275791492125], [85.17969897973391, 27.972756569939197], [85.17970049471056, 27.972666342346507], [85.17949875200536, 27.972573424583782], [85.17950178226144, 27.972392969412454], [85.17940015360348, 27.972391624225736], [85.1794046991884, 27.972120941474575], [85.17930307079087, 27.972119596228115], [85.17930610131467, 27.971939141064567], [85.17920447309307, 27.97193779575328], [85.17920598842892, 27.97184756817471], [85.1791043602988, 27.971846222793506], [85.17900576316421, 27.971664422196735], [85.1788025072769, 27.971661731079667], [85.17870391081101, 27.97147993029358], [85.17850065530365, 27.97147723874685], [85.17850217119567, 27.97138701119762], [85.17829739982436, 27.971474546900097], [85.1782989158853, 27.971384319361054], [85.17809717682587, 27.97129139969435], [85.17820183663476, 27.971112290720857], [85.17799858187328, 27.97110959846482], [85.1778999872375, 27.970927797175634], [85.17800161443878, 27.97092914340596], [85.17800313071099, 27.970838915874655], [85.17820790106198, 27.970751380557353], [85.17821093323349, 27.970570925468035], [85.17841570291581, 27.970483389806205], [85.17841873470736, 27.970302934688963], [85.17862350372106, 27.9702153986826], [85.17862653513268, 27.97003494353743], [85.1787281615385, 27.970036289191818], [85.17872967714933, 27.96994606161225], [85.17893444524803, 27.96985852509483], [85.17893596067591, 27.96976829750256], [85.17883433450942, 27.969766952013455], [85.17883736551306, 27.969586496835323], [85.17904213283762, 27.96949896011704], [85.17904516346135, 27.969318504910987], [85.17924993011728, 27.9692309678482], [85.17925296036111, 27.96905051261423], [85.17935458588002, 27.96905185776261], [85.17935610090696, 27.968961630138658], [85.17945772634843, 27.968962975206946], [85.17945924128391, 27.96887274757664], [85.17966400677855, 27.96878520983631], [85.17956541115893, 27.96860340965108], [85.17976866140134, 27.96860609937197], [85.17977017605541, 27.968515871721348], [85.17987180110268, 27.968517216464214], [85.17987331566528, 27.968426988807245], [85.18007807999865, 27.968339450389397], [85.18008110875101, 27.968158995048814], [85.1802858724158, 27.96807145628651], [85.18039355345505, 27.967711889866578], [85.18049517778435, 27.967713234113674], [85.18059982993039, 27.967534122876692], [85.18080307828623, 27.967536810975577], [85.1808045920117, 27.96744658325897], [85.18090621611567, 27.96744792719084], [85.18090470247465, 27.967538154912532], [85.18100632667009, 27.96753949877449], [85.18100481310651, 27.967629726500004], [85.1811064373934, 27.967631070292057], [85.1812050348769, 27.967812869476713], [85.18140979706331, 27.967725328962846], [85.18140828382349, 27.967815556706185], [85.1816100197202, 27.96790847138794], [85.18160850663529, 27.967998699138924], [85.18150688197557, 27.96799735570151], [85.18160548044442, 27.96817915463713], [85.18191035497227, 27.96818318452992], [85.18190884211968, 27.968273412292383], [85.18201046706075, 27.96827475544507], [85.1820119798289, 27.968184527677526], [85.18221522956316, 27.968187213747754], [85.18221371696391, 27.968277441525462], [85.18251859187116, 27.968281470083582], [85.18251707951828, 27.96837169787528], [85.18292357983043, 27.968377068256487], [85.18302218104368, 27.968558866294728], [85.18342868217144, 27.968564235216647], [85.1834271705576, 27.96865446305029], [85.18363042133237, 27.968657147071422], [85.18362890988044, 27.968747374913963], [85.18373053536277, 27.968748716817117], [85.18373204673024, 27.968658488969496], [85.183935297547, 27.968661172540646], [85.18393378634842, 27.968751400398425], [85.18423866287935, 27.968755425207906], [85.18423715192715, 27.968845653079658], [85.18444040315165, 27.968848335921145], [85.18443889236137, 27.968938563801782], [85.18474376950392, 27.96894258751675], [85.18474225896, 27.969032815411364], [85.18484388477263, 27.969034156504765], [85.1848408638327, 27.96921461230036], [85.18494248982124, 27.969215953328916], [85.18483784286481, 27.969395068090922], [85.18503958486116, 27.96948797799687], [85.18503656418912, 27.969668433800177], [85.18534144348446, 27.96967245628695], [85.18533993339133, 27.969762684201942], [85.18544155992156, 27.96976402488594], [85.18544004990589, 27.969854252804748], [85.18564330315621, 27.96985693395789], [85.1857419102463, 27.970038730286216], [85.18604679070194, 27.97004275125885], [85.18604528117206, 27.970132979204305], [85.18635016194393, 27.970136999517134], [85.18634865266044, 27.97022722747655], [85.18685678784229, 27.970233926523225], [85.1868552789741, 27.97032415450674], [85.18695690611588, 27.97032549409614], [85.18695237972278, 27.97059617805432], [85.18685075232762, 27.97059483844971], [85.18684773452838, 27.970775294405396], [85.18664447942116, 27.9707726149509], [85.18664146125613, 27.97095307088127], [85.18653983354409, 27.970951731031374], [85.18653530599076, 27.97122241490228], [85.1864336780323, 27.97122107496217], [85.1864321687494, 27.971311302911545], [85.18633054071348, 27.97130996289136], [85.18632903133916, 27.971400190834416], [85.18612426556908, 27.97148773849052], [85.18622287480743, 27.97166953454053], [85.18601810843911, 27.971757082007354], [85.1860150891068, 27.971937537849186], [85.18611671771303, 27.971938878129894], [85.18601206974654, 27.972117993685977], [85.1861136985217, 27.97211933397683], [85.1861106793024, 27.97229978981873], [85.18631242776037, 27.972392698124906], [85.18630940883703, 27.972573153979543], [85.1864110380555, 27.972574494070724], [85.18650964866754, 27.972756289956777], [85.18671441661854, 27.972668741839918], [85.18671290747729, 27.972758969784373], [85.1871194251806, 27.972764328539437], [85.18711791637024, 27.972854556502906], [85.18752443452318, 27.97285991407808], [85.18752292604373, 27.972950142060565], [85.18772618533103, 27.972952820408217], [85.18772769364156, 27.972862592415602], [85.18782932321122, 27.97286393147184], [85.18782781498517, 27.97295415946953], [85.18803107431438, 27.972956837367114], [85.1880295662503, 27.973047065373677], [85.18813119600983, 27.97304840421502], [85.18813270398945, 27.972958176203388], [85.18833596336054, 27.972960853650907], [85.18833445554986, 27.97305108167267], [85.1887409747137, 27.973056435687827], [85.18873946723392, 27.973146663728585], [85.18904435693348, 27.97315067846752], [85.18904284970016, 27.973240906522214], [85.18924610970369, 27.973243582649904], [85.18924460263233, 27.973333810713463], [85.18954949294337, 27.973337824357593], [85.18954798611846, 27.973428052435082], [85.18995300047473, 27.973523631027135], [85.18995149397375, 27.973613859122352], [85.19005312437271, 27.973615196568836], [85.19005161794924, 27.973705424667855], [85.19015324843964, 27.973706762044383], [85.19015174209366, 27.97379699014721], [85.19025337267551, 27.973798327453782], [85.19025186640705, 27.9738885555604], [85.19035349708034, 27.973889892797025], [85.19035199088938, 27.973980120907445], [85.19055374639686, 27.974073023285055], [85.19055073431798, 27.97425347951985], [85.1906523653501, 27.974254816551664], [85.19054772221122, 27.974433935749612], [85.19074947872545, 27.97452683788157], [85.19074646691477, 27.974707294124013], [85.19084809838323, 27.974708631031092], [85.190946718358, 27.974890424120797], [85.19104835000935, 27.97489176088795], [85.19104985567868, 27.9748015327547], [85.19125311883333, 27.974804206053843], [85.19125462432673, 27.974713977909214], [85.19145788734029, 27.974716650898173], [85.19145939265776, 27.974626422742176], [85.19156102409052, 27.97462775911907], [85.19155951885752, 27.97471798728013], [85.19176278191291, 27.97472065981898], [85.19176428697695, 27.974630431647817], [85.1920691813588, 27.974634439878297], [85.19206767654822, 27.97472466806463], [85.19216930810725, 27.974726003996484], [85.19217081283337, 27.974635775805094], [85.19237407580337, 27.97463844743363], [85.19237257124621, 27.974728675635127], [85.19247420282615, 27.97473001134192], [85.19247570729883, 27.974639783135366], [85.19257733880124, 27.97464111876209], [85.19257583441305, 27.974731346973694], [85.19338888735888, 27.974742029327288], [85.19339039107123, 27.97465180107526], [85.1934920226363, 27.97465313602683], [85.19349051900844, 27.974743364283913], [85.19369378232842, 27.974746033972092], [85.19369528578734, 27.974655805704913], [85.19389854896622, 27.97465847508293], [85.19390005224922, 27.974568246804395], [85.19400168376461, 27.97456958137582], [85.19400018056609, 27.974659809659407], [85.19440670703517, 27.974665147215152], [85.19440520416761, 27.97475537551768], [85.19460846761284, 27.97475804385554], [85.19470709409678, 27.974939834543513], [85.19511362177441, 27.974945170059332], [85.19521224927908, 27.97512696042774], [85.19551714563808, 27.97513096108213], [85.19551564366503, 27.975221189433874], [85.19582054034002, 27.975225189428222], [85.1958190386135, 27.97531541779386], [85.1960223032672, 27.97531808409174], [85.19602380482479, 27.975227855716017], [85.19622706933735, 27.97523052170374], [85.19622556794874, 27.975320750089548], [85.19632720029992, 27.97532208297593], [85.19632870160406, 27.97523185458507], [85.19663359844587, 27.975235852778948], [85.19663209739518, 27.975326081184924], [85.19673372977417, 27.975327413771215], [85.19673523074037, 27.975237185360193], [85.19724339231709, 27.975243847141154], [85.1972418917733, 27.975334075577393], [85.19764842149763, 27.97533940367196], [85.19764992170349, 27.975249175215566], [85.19775155406745, 27.97525050704662], [85.19775005394608, 27.975340735508052], [85.1979533188638, 27.97534339895518], [85.1979548188162, 27.97525317048367], [85.19815808359273, 27.975255833620633], [85.19815658380931, 27.975346062102215], [85.19825821629246, 27.97534739356321], [85.19825971599141, 27.975257165076588], [85.19958093780583, 27.97527446717714], [85.19957943920517, 27.975364695729223], [85.19968107178548, 27.97536602613993], [85.19967957326236, 27.97545625469579], [85.19957794059756, 27.975454924280058], [85.19947331053471, 27.97563405087711], [85.19927004490185, 27.97563138965039], [85.19926854602, 27.975721618182337], [85.19835385025527, 27.97570963890322], [85.1983523506061, 27.97579986738859], [85.19825071769357, 27.97579853597743], [85.19825221742724, 27.975708307497097], [85.19804895179198, 27.975705644459794], [85.19805045168768, 27.975615415988287], [85.19794881896495, 27.97561408436214], [85.19794731898477, 27.975704312828604], [85.19743915505285, 27.975697653547357], [85.1974376546433, 27.975787881987376], [85.19713275611404, 27.975783885503247], [85.19713125544409, 27.97587411392689], [85.19702962253042, 27.975872781610427], [85.19702812176905, 27.975963010027762], [85.19692648877782, 27.975961677631243], [85.196821853912, 27.97614080197043], [85.19641532136852, 27.976135471293688], [85.19641382007939, 27.976225699677], [85.19621055368034, 27.976223033878405], [85.19620905221528, 27.976313262250372], [85.19610741894171, 27.9763119292335], [85.19610892049126, 27.976221700866574], [85.19570238780442, 27.976216368069025], [85.19570088591692, 27.97630659641577], [85.1955992526781, 27.976305263023775], [85.19560075465009, 27.97621503468208], [85.19539748836227, 27.976212367683118], [85.19539899049629, 27.976122139350256], [85.1952973574473, 27.976120805743285], [85.1952958552288, 27.976211034071106], [85.19509258898272, 27.976208366622018], [85.1950910865883, 27.976298594938488], [85.19448128751004, 27.976290590760378], [85.19447978460175, 27.976380819045303], [85.1943781513619, 27.976379484747987], [85.19437965435469, 27.976289256468114], [85.19387148868225, 27.976282583881442], [85.19387299209049, 27.976192355625557], [85.19366822246197, 27.976279914321623], [85.1936697260392, 27.976189686075838], [85.19336482701446, 27.976185681188586], [85.1933663308382, 27.97609545295669], [85.19285816635863, 27.976088776669414], [85.19285666211246, 27.976179004876048], [85.19275502915295, 27.97617766938847], [85.19275352481534, 27.976267897588794], [85.19255025874823, 27.976265226378473], [85.19254875423468, 27.97635545456743], [85.19244712112709, 27.976354118844682], [85.19234247864053, 27.976533239400826], [85.1921392121222, 27.976530567560005], [85.19213770724981, 27.976620795724966], [85.19193594563176, 27.976527895419085], [85.19193444059039, 27.976618123573935], [85.19183280727113, 27.976616787385883], [85.1918297969985, 27.976797243681702], [85.19162803535171, 27.976704342923142], [85.19162653004294, 27.976794571060303], [85.19142326311523, 27.97679189813881], [85.19142175763052, 27.97688212626461], [85.19101522352078, 27.976876779501108], [85.19101371769115, 27.976967007605417], [85.19081045050912, 27.9769643337634], [85.19080894450353, 27.977054561856338], [85.19070731083849, 27.97705322481773], [85.19070580474144, 27.977143452904347], [85.19060417099887, 27.97714211578566], [85.19060266481037, 27.977232343865957], [85.19050103099029, 27.97723100666719], [85.1904995247103, 27.977321234741165], [85.19039789081272, 27.97731989746231], [85.19029324400327, 27.97749901623238], [85.18998834186628, 27.977495003690223], [85.18998984858266, 27.977404775644057], [85.18978507380982, 27.977492328286992], [85.18968645372478, 27.97731053440962], [85.18948167891628, 27.97739808659859], [85.18948318604814, 27.97730785857648], [85.18927991839941, 27.977305182443235], [85.18928142569325, 27.977214954429996], [85.18907665077857, 27.977302506009902], [85.1889780320663, 27.977120711683327], [85.18877476482531, 27.97711803482009], [85.18877627252765, 27.97702780682965], [85.1886746390021, 27.977026468290568], [85.18857602120525, 27.976844673712044], [85.1883712465007, 27.976932224251694], [85.18827262930223, 27.976750429481054], [85.18786609639541, 27.97674507343486], [85.18786760483025, 27.976654845484973], [85.18766282998389, 27.976742394961615], [85.1876643385877, 27.976652167021868], [85.1874610723731, 27.976649488258676], [85.18736245696981, 27.97646769291167], [85.18705755822816, 27.97646367400955], [85.18705906731792, 27.976373446096428], [85.18695743450249, 27.976372106317417], [85.18695894366977, 27.976281878408106], [85.18685731094581, 27.97628053855914], [85.18685882019057, 27.976190310653642], [85.18665706433931, 27.976097402844168], [85.18666008313184, 27.975916947047153], [85.1865584507668, 27.975915606993407], [85.18645983751122, 27.975733811082875], [85.18625657315398, 27.975731130620556], [85.18625808286372, 27.975640902737922], [85.18605481870338, 27.97563822198567], [85.1860563285751, 27.975547994111924], [85.1858530646117, 27.975545313069738], [85.18585457464539, 27.975455085204878], [85.18564980067626, 27.97554263172747], [85.18565131087891, 27.97545240387276], [85.18544804714038, 27.975449722240565], [85.18544955750502, 27.975359494394738], [85.18514466220311, 27.97535547139903], [85.18514617281419, 27.975265243567165], [85.18494290948351, 27.975262561205078], [85.18494442025657, 27.97517233338211], [85.1848427886862, 27.975170992093613], [85.18474417898585, 27.974989195100687], [85.18464254759843, 27.974987853672303], [85.18464103658593, 27.975078081482565], [85.18413287933136, 27.975071373190026], [85.18413136788946, 27.975161600973657], [85.1839265932498, 27.975249144893574], [85.18392205835426, 27.97551982820264], [85.18382042651592, 27.975518486143653], [85.18381286779433, 27.975969624941534], [85.18371123554057, 27.97596828278214], [85.18370367622161, 27.976419421523143], [85.18360204355244, 27.976418079263333], [85.18360053158317, 27.976508307002682], [85.1834988988365, 27.976506964662768], [85.18349738677574, 27.97659719239578], [85.18329260889772, 27.97668473520233], [85.18328958440325, 27.97686519064173], [85.18308480585634, 27.97695273310378], [85.183183414292, 27.97713453119086], [85.18297863514665, 27.977222073463512], [85.18297258494786, 27.977582984246094], [85.18287095122935, 27.977581641395094], [85.18296955980645, 27.977763439629832], [85.18286792591897, 27.97776209676866], [85.18286490058057, 27.977942552137208], [85.18276326653108, 27.977941209190856], [85.18286187521417, 27.97812300750071], [85.18276024099569, 27.978121664544187], [85.1827541898409, 27.978482575235752], [85.18265255529145, 27.97848123218388], [85.18264952950307, 27.97866168751195], [85.18275116422149, 27.97866303057398], [85.18274965140128, 27.978753258241206], [85.18264801659835, 27.978751915174094], [85.18264499076794, 27.978932370494604], [85.18254335580303, 27.97893102734229], [85.18254184279283, 27.97902125499558], [85.18264347784222, 27.979022598152962], [85.18264196490951, 27.979112825810073], [85.1825403297756, 27.979111482647596], [85.1825327645845, 27.97956262088883], [85.18232798026447, 27.979650161922283], [85.18232344053776, 27.979920844817634], [85.18211865537276, 27.9800083854951], [85.18211108814143, 27.98045952357172], [85.18200945177504, 27.98045817995785], [85.18200491109867, 27.980728862773457], [85.18190327448579, 27.9807275190693], [85.18189873349284, 27.980998201858323], [85.18179709663346, 27.980996858063886], [85.18179406910079, 27.981177313240103], [85.18189570612918, 27.981178657044705], [85.18189419243686, 27.98126888463601], [85.18179255532395, 27.981267540826316], [85.18178952774925, 27.98144799599498], [85.18168789047434, 27.981446652100082], [85.18168637659195, 27.98153687967744], [85.18148158783575, 27.981624419218292], [85.18158019729687, 27.98180621841168], [85.18137540794208, 27.98189375776309], [85.18137237959323, 27.982074212873442], [85.18127074175479, 27.982072868642796], [85.18126922748532, 27.982163096190998], [85.18137086540827, 27.982164440426722], [85.18136329437837, 27.982615578174254], [85.1814649327309, 27.98261692236037], [85.1814619044389, 27.982797377460738], [85.18156354296744, 27.982798721581986], [85.18156051481645, 27.98297917668748], [85.18145887611888, 27.98297783255607], [85.18145736194836, 27.98306806010185], [85.18155900073045, 27.98306940423834], [85.18155445843037, 27.983340086883363], [85.181656097473, 27.983341430960074], [85.18165458344347, 27.983431658510984], [85.18175622257762, 27.983433002517735], [85.1817531946666, 27.98361345762594], [85.18195495949699, 27.983706372997023], [85.18185029231121, 27.983885484235927], [85.18195193188195, 27.983886828118003], [85.18195041806395, 27.983977055676608], [85.18205205772622, 27.98397839948873], [85.18215067007652, 27.984160198359568], [85.18235394977418, 27.984162885628916], [85.18224928274388, 27.984341997170652], [85.18235092276524, 27.984343340777965], [85.18234184157032, 27.9848847061949], [85.18244348210581, 27.984886049757673], [85.18243440116584, 27.98542741515975], [85.18253604221547, 27.98542875867797], [85.18253452878548, 27.985518986245655], [85.18243288765132, 27.985517642722368], [85.18242986060127, 27.985698097843795], [85.18253150190449, 27.985699441377257], [85.1825299884535, 27.985789668941173], [85.18242834706574, 27.985788325402623], [85.18242531997366, 27.9859687805165], [85.18252696153047, 27.9859701240652], [85.18252393457941, 27.986150579184212], [85.18242229285357, 27.98614923562534], [85.182420779283, 27.98623946317787], [85.18252242109338, 27.986240806741822], [85.18251788059327, 27.9865114894071], [85.18261952266424, 27.98651283291125], [85.18261800923472, 27.986603060468905], [85.18251636707922, 27.98660171695967], [85.18251334003011, 27.986782172061048], [85.18261498235466, 27.986783515580438], [85.18261195544659, 27.986963970686933], [85.18271359794721, 27.986965314141436], [85.1827120845672, 27.987055541697874], [85.18261044198205, 27.987054198238287], [85.18260741503194, 27.987234653337232], [85.18270905778617, 27.98723599680698], [85.1827060309771, 27.98741645191104], [85.18260438805383, 27.98741510843113], [85.18260287455426, 27.98750533597619], [85.18270451756207, 27.987506679461184], [85.18269543692477, 27.98804804473558], [85.1827970804468, 27.98804938817601], [85.18279405368072, 27.988229843267575], [85.18289569737883, 27.988231186643112], [85.18289418406984, 27.98832141419207], [85.18279254028718, 27.988320070811458], [85.1827895134791, 27.988500525895457], [85.18289115743082, 27.98850186928623], [85.18288813076377, 27.988682324375358], [85.18298977489157, 27.988683667701242], [85.18298826163209, 27.98877389524899], [85.18288661741975, 27.98877255191803], [85.1828835907107, 27.988953006999594], [85.18298523509212, 27.988954350340716], [85.18298220852411, 27.989134805427405], [85.18288056397363, 27.98913346207612], [85.18287905059458, 27.989223689612494], [85.1829806952296, 27.989225032968857], [85.18297615530409, 27.989495715585672], [85.18317793194898, 27.98958862965028], [85.18326747213995, 27.990311793169703], [85.18347076350209, 27.990314479328802], [85.18336609171577, 27.990493591376335], [85.1835678705378, 27.990586504958664], [85.18356484473223, 27.990766960060967], [85.18366649085354, 27.99076830297825], [85.18366346518906, 27.99094875808568], [85.18376511148647, 27.99095010093806], [85.18366043949656, 27.99112921318807], [85.18376208596307, 27.991130556050603], [85.18375754762548, 27.991401238709976], [85.18385919435262, 27.99140258151268], [85.18375452203206, 27.991581693809934], [85.18385616892832, 27.991583036622785], [85.18385163073935, 27.991853719278506], [85.18395327789628, 27.991855062031533], [85.18384860524505, 27.992034174376013], [85.18395025257105, 27.992035517139197], [85.18393966371231, 27.99266710997637], [85.1840413116372, 27.99266845270003], [85.1840382863551, 27.992848907795185], [85.1838334773534, 27.992936449788008], [85.18382591314506, 27.99338758744677], [85.18402921034077, 27.99339027305042], [85.18402467223909, 27.993660955661028], [85.18412632110113, 27.99366229836548], [85.18411724521611, 27.994203663583164], [85.18431903147305, 27.99429657636979], [85.1843160064463, 27.994477031450067], [85.1844176560904, 27.994478373974978], [85.18441311875145, 27.994749056601183], [85.18461641856803, 27.99475174145624], [85.18461490627686, 27.994841969005943], [85.18471655628021, 27.99484331132593], [85.18471504406659, 27.99493353887945], [85.18491683221194, 27.995026450866746], [85.184913808088, 27.995206905987786], [85.18501545845061, 27.995208248102838], [85.18500941045701, 27.995569158350115], [85.18511106116489, 27.995570500410388], [85.18510954923356, 27.99566072797413], [85.18521120003301, 27.995662069964396], [85.18520968817926, 27.99575229753195], [85.18531133907027, 27.995753639452214], [85.18530982729409, 27.99584386702359], [85.18541147827666, 27.995845208873842], [85.18540996657805, 27.995935436449034], [85.18561175719688, 27.996028347518514], [85.18560873410298, 27.996208802682894], [85.18581052540537, 27.99630171348885], [85.18580296835894, 27.9967528514222], [85.18570131650266, 27.996751509821546]]]}, "properties": {"name": "Reservoir at crest level", "value": 30.348, "unit": "Mm3"}}]}