{"type": "FeatureCollection", "features": [{"type": "Feature", "geometry": {"type": "LineString", "coordinates": [[85.20834552822582, 28.05709541083256], [85.20834822181173, 28.05693300058677], [85.20835181322474, 28.056716453586056], [85.20835630243495, 28.056445769824954], [85.20836079158288, 28.056175086052516], [85.20824323022006, 28.0559028092808], [85.20812566941574, 28.05563053242545], [85.2080081091699, 28.055358255486464], [85.20789054948251, 28.05508597846385], [85.2077729903536, 28.054813701357606], [85.20765543178312, 28.05454142416775], [85.2075378737711, 28.05426914689427], [85.20742031631748, 28.053996869537176], [85.20724173546321, 28.0537237952005], [85.20700213168877, 28.05344992366745], [85.20682355274711, 28.053176848856463], [85.20670599815774, 28.052904570984296], [85.2065274208083, 28.052631495843542], [85.20634884433503, 28.052358420501786], [85.20623129173602, 28.052086142288545], [85.20605181803872, 28.051867203338304], [85.20581042338708, 28.051701603418085], [85.20556813043778, 28.0515901398127], [85.20532583800694, 28.051478675800915], [85.2050225235408, 28.051366413561933], [85.20472010919819, 28.051200013993483], [85.20441859541464, 28.05097947711863], [85.20411798261816, 28.05070480295907], [85.20381737134831, 28.050430128201295], [85.20357778342468, 28.05015625130366], [85.20339921835934, 28.04988317256415], [85.20322065416998, 28.049610093623762], [85.20304209085656, 28.049337014482514], [85.20292454960062, 28.049064733860547], [85.2027459878789, 28.0487916543898], [85.20256742703307, 28.048518574718198], [85.20238886706314, 28.048245494845766], [85.20227132851257, 28.04797321375443], [85.2020927701342, 28.04770013355256], [85.20197523285741, 28.047427852249143], [85.20179667607056, 28.047154771717853], [85.20167914006748, 28.04688249020236], [85.2015005848721, 28.046609409341674], [85.20132203055246, 28.046336328280205], [85.201082457681, 28.046062447584724], [85.20084198481054, 28.045842703130674], [85.20053959241338, 28.04567629523744], [85.20023720097196, 28.045509886717312], [85.19993481048628, 28.045343477570313], [85.19963242095635, 28.045177067796445], [85.1993309343052, 28.044956520820563], [85.19903035096061, 28.044681836664424], [85.19872976914215, 28.044407151910498], [85.19842918884979, 28.044132466558803], [85.19812770760011, 28.04391191715733], [85.19788724557377, 28.04369216796196], [85.1976467845241, 28.043472418384066], [85.1974063244511, 28.043252668423655], [85.19716586535473, 28.04303291808073], [85.19692631027871, 28.04275903083458], [85.1966248359587, 28.042538478410666], [85.19632336288203, 28.042317925375066], [85.19602189104863, 28.042097371727785], [85.19572042045856, 28.041876817468857], [85.19547996786225, 28.041657064432332], [85.19524042007805, 28.041383174532196], [85.19500087349195, 28.041109284260116], [85.19476132810392, 28.0408353936161], [85.19458280001652, 28.04056230480408], [85.194343256862, 28.040288413515476], [85.19416473068533, 28.04001532423027], [85.19404722100616, 28.03974303716492], [85.19399072735173, 28.039471552454636], [85.1939342339422, 28.03920006772411], [85.19393875593707, 28.038929385420595], [85.19394327786918, 28.038658703105728], [85.19394779973855, 28.038388020779525], [85.19389130684337, 28.03811653602203], [85.19383481419305, 28.037845051244304], [85.19377832178763, 28.03757356644635], [85.19372182962705, 28.037302081628173], [85.19366533771134, 28.03703059678976], [85.193669859967, 28.036759914440978], [85.19367438215988, 28.036489232080857], [85.19367890429002, 28.0362185497094], [85.19368342635741, 28.035947867326595], [85.19368794836205, 28.035677184932453], [85.19369247030393, 28.03540650252697], [85.19369699218305, 28.035135820110135], [85.19370151399944, 28.034865137681976], [85.19370603575308, 28.034594455242463], [85.19371055744395, 28.034323772791613], [85.1937150790721, 28.034053090329426], [85.1937196006375, 28.03378240785589], [85.19372412214013, 28.033511725371017], [85.19372864358003, 28.033241042874803], [85.19373316495718, 28.032970360367248], [85.19373768627159, 28.032699677848353], [85.19374220752324, 28.03242899531812], [85.19374672871217, 28.03215831277655], [85.19375124983834, 28.03188763022363], [85.19375577090179, 28.031616947659373], [85.19376029190248, 28.031346265083783], [85.19370380211699, 28.031074780177992], [85.19364731257627, 28.030803295251992], [85.19359082328032, 28.030531810305764], [85.19347332397325, 28.030259522939478], [85.19329481512757, 28.029986433018017], [85.19317731709256, 28.02971414544024], [85.1930598196148, 28.02944185777924], [85.19294232269428, 28.029169570035013], [85.19288583579682, 28.02889808485968], [85.19289035845743, 28.028627402307144], [85.19289488105527, 28.028356719743265], [85.19283839458197, 28.028085234543237], [85.19278190835338, 28.02781374932301], [85.1926644136736, 28.02754146139476], [85.192484101657, 28.027376643642985], [85.1922418768967, 28.02726515931314], [85.19199965265445, 28.027153674577548], [85.19175742893025, 28.027042189436223], [85.1915152057241, 28.026930703889168], [85.1912738883011, 28.026765081458713], [85.19103347700455, 28.026545322162637], [85.19079216119486, 28.026379698951292], [85.19048983826102, 28.026213271728103], [85.1901866105009, 28.026100980329666], [85.18988338340343, 28.025988688289257], [85.18957925088995, 28.02593053204079], [85.18927602497037, 28.02581823870825], [85.18897279971347, 28.025705944733755], [85.18866957511923, 28.025593650117326], [85.18836635118767, 28.02548135485897], [85.1880631279188, 28.025369058958695], [85.18775899834688, 28.025310898800694], [85.18745396202208, 28.02530687435896], [85.18714983303089, 28.025248712874713], [85.18684661182313, 28.02513641437398], [85.18654429884106, 28.024969978881423], [85.18624289451937, 28.024749406420373], [85.18594239928518, 28.024474697012792], [85.18570291215003, 28.024200792726493], [85.18546342621178, 28.023926888068925], [85.18528494772244, 28.02365378892911], [85.18516747620191, 28.023381495523196], [85.1851110111778, 28.023110007986148], [85.18505454639804, 28.02283852042897], [85.18505908749484, 28.022567838812343], [85.18506362852858, 28.02229715718438], [85.18512917482914, 28.022027281460417], [85.18525572594679, 28.02175821153186], [85.18544328143933, 28.021489947208956], [85.18569184087224, 28.02122248822077], [85.18600140381845, 28.020955834215194], [85.18624996062489, 28.020688374074936], [85.18649851618927, 28.020420913417343], [85.18674707051166, 28.02015345224244], [85.186934619406, 28.019885185519705], [85.18706116330691, 28.019616113520055], [85.18718770654529, 28.019347041364323], [85.1871922416409, 28.01907635928973], [85.18713577308962, 28.01880487229095], [85.18714030821175, 28.018534190202804], [85.18714484327093, 28.018263508103313], [85.18714937826716, 28.017992825992486], [85.18721491617478, 28.017722948746655], [85.1872804537172, 28.017453071444177], [85.18728498821982, 28.017182389281064], [85.18722852013983, 28.01691090228471], [85.18711104994193, 28.01663861040133], [85.18693257809842, 28.016365513495987], [85.18669310508909, 28.016091611352593], [85.18639263140132, 28.015816903673908], [85.18609215923735, 28.015542195398876], [85.18579168859719, 28.015267486527524], [85.18555222086076, 28.01499358260238], [85.18537375554065, 28.014720483920698], [85.18519529109447, 28.014447385039023], [85.18501591960717, 28.01422842234645], [85.1848365488336, 28.014009459447013], [85.18465717877372, 28.01379049634074], [85.18447780942758, 28.01357153302762], [85.18435944121045, 28.013353375536365], [85.18430298197184, 28.01308188763113], [85.18424652297743, 28.01281039970579], [85.18419006422722, 28.012538911760334], [85.18413360572121, 28.01226742379478], [85.18401614781848, 28.011995129690874], [85.18389869047218, 28.01172283550401], [85.18384223300848, 28.011451347442325], [85.18372477661765, 28.01117905313449], [85.18360732078325, 28.010906758743705], [85.18355086436176, 28.010635270585915], [85.18349440818443, 28.010363782408017], [85.18343795225123, 28.010092294210033], [85.18344249495661, 28.009821612334544], [85.18344703759894, 28.009550930447713], [85.18345158017821, 28.009280248549548], [85.18345612269442, 28.00900956664004], [85.18346066514758, 28.00873888471918], [85.1834652075377, 28.008468202786986], [85.18353074734773, 28.00819832710414], [85.1835962867926, 28.007928451364617], [85.1836618258723, 28.00765857556842], [85.18372736458687, 28.007388699715555], [85.18379290293626, 28.007118823806007], [85.18379744418648, 28.006848141760045], [85.18380198537368, 28.006577459702743], [85.18380652649782, 28.006306777634105], [85.18387206383603, 28.006036901606446], [85.1839376008091, 28.005767025522115], [85.18406413339714, 28.005497955334032], [85.18419066532302, 28.005228884989883], [85.18431719658676, 28.00495981448967], [85.18432173611433, 28.00468913227985], [85.18432627557887, 28.004418450058697], [85.18426981975173, 28.00414696202715], [85.18421336416868, 28.00387547397551], [85.18415690882972, 28.003603985903773], [85.18416144849907, 28.003333303664682], [85.18416598810539, 28.00306262141425], [85.184109533189, 28.002791133318023], [85.1840530785167, 28.002519645201705], [85.18399662408844, 28.002248157065285], [85.18400116389951, 28.001977474796924], [85.18400570364756, 28.001706792517215], [85.18413223072162, 28.00143772188479], [85.18425875713368, 28.00116865109631], [85.18438528288372, 28.000899580151792], [85.18445081471769, 28.000629703425073], [85.184577339291, 28.00036063223169], [85.18464287024521, 28.000090755355497], [85.18470840083442, 27.999820878422668], [85.18483492371631, 27.999551806887602], [85.18496144593628, 27.99928273519651], [85.18508796749433, 27.9990136633494], [85.18521448839046, 27.998744591346274], [85.1853410086247, 27.998475519187142], [85.18546752819707, 27.998206446872004], [85.18559404710757, 27.997937374400852], [85.185659573729, 27.997667496761686], [85.18572509998552, 27.997397619065886], [85.18579062587712, 27.99712774131346], [85.1857341690553, 27.99685625361625], [85.18567771247749, 27.99658476589894], [85.18556026528272, 27.996312473141113], [85.18538182794278, 27.996039375207996], [85.18520339147591, 27.995766277075077], [85.18502495588208, 27.995493178742365], [85.18478553094195, 27.995219274874607], [85.18454519978053, 27.994999507162486], [85.18430486959329, 27.99477973906912], [85.184003550559, 27.994559164929854], [85.18370132495023, 27.994392726686474], [85.18346008990848, 27.994227093742165], [85.18321976365829, 27.994007323911415], [85.18297943838225, 27.993787553699484], [85.18280010330069, 27.993568589305763], [85.18262167724701, 27.993295488224028], [85.18244325206621, 27.9930223869426], [85.18232581650182, 27.992750091849626], [85.18233035867348, 27.99247940945878], [85.18233490078208, 27.992208727056607], [85.18246141940914, 27.991939657283382], [85.18258793737445, 27.991670587354125], [85.18271445467802, 27.991401517268837], [85.18277998346929, 27.99113164091048], [85.18284551189566, 27.99086176449547], [85.18285005240843, 27.990591081952086], [85.18279360546411, 27.990319593307774], [85.18267617152685, 27.990047298508895], [85.18249684282598, 27.98982833392617], [85.18225652786226, 27.989608562827865], [85.18195431853263, 27.98944212140381], [85.18171309692421, 27.98927648592328], [85.18147187606388, 27.98911085005025], [85.18123156479272, 27.988891077310488], [85.18105224090073, 27.98867211103508], [85.18087382672243, 27.98839900808584], [85.18069541341674, 27.98812590493702], [85.18057798691223, 27.98785360862267], [85.18052154673725, 27.98758211927746], [85.18046510680601, 27.987310629912212], [85.18046965258557, 27.987039947587547], [85.18047419830201, 27.98676926525155], [85.18047874395533, 27.98649858290421], [85.18048328954555, 27.98622790054554], [85.18048783507263, 27.985957218175525], [85.1804923805366, 27.985686535794173], [85.18049692593746, 27.985415853401488], [85.18056245567978, 27.98514597796697], [85.18056700080226, 27.984875295542444], [85.18057154586165, 27.984604613106594], [85.18057609085793, 27.984333930659396], [85.1805806357911, 27.98406324820087], [85.18052419701728, 27.98379175880729], [85.18052874197637, 27.983521076335247], [85.18047230353524, 27.98324958691945], [85.18041586533779, 27.982978097483624], [85.18035942738399, 27.98270660802776], [85.18036397254701, 27.982435925537843], [85.18036851764691, 27.982165243036594], [85.18043404525515, 27.981895367464656], [85.18056055492296, 27.981626298713515], [85.1806870639293, 27.981357229806353], [85.18075259014394, 27.98108735399208], [85.1808181159938, 27.980817478121146], [85.18094462330994, 27.980548408872313], [85.18101014828066, 27.980278532851887], [85.18107567288659, 27.98000865677481], [85.18114119712777, 27.979738780641075], [85.1812677022395, 27.97946971095776], [85.1813332256016, 27.97919983467455], [85.18139874859897, 27.97892995833469], [85.1815252520207, 27.978660888309758], [85.18165175478111, 27.978391818128838], [85.18171727638519, 27.9781219415467], [85.18178279762454, 27.97785206490791], [85.18190929869509, 27.9775829943854], [85.18197481905548, 27.97731311759717], [85.1820403390512, 27.97704324075229], [85.18210585868223, 27.976773363850782], [85.18217137794859, 27.97650348689262], [85.1822368968503, 27.976233609877827], [85.18230241538734, 27.975963732806388], [85.18236793355973, 27.97569385567832], [85.18249443036947, 27.97542478435027], [85.18262092651801, 27.97515571286627], [85.18268644329743, 27.974885835495986], [85.18281293827062, 27.97461676376326], [85.18300041099656, 27.974348497478612], [85.18312690450041, 27.974079425370864], [85.18331437546553, 27.973811158557893], [85.18356282345844, 27.973543696769227], [85.18375029237383, 27.973275429247643], [85.1839377603366, 27.973007161416845], [85.18412522734678, 27.972738893276833], [85.18425171600194, 27.972469819854698], [85.18431722674308, 27.972199941339852], [85.18432176001879, 27.971929257840745], [85.18426531628519, 27.971657769384777], [85.18420887279524, 27.971386280908753], [85.18409145291417, 27.97111398740442], [85.18391215030064, 27.970895025434174], [85.18373284839922, 27.97067606325754], [85.18349166395744, 27.970510432305556], [85.18318950409177, 27.970343995573682], [85.1828864378793, 27.970231694888916], [85.18258337232788, 27.9701193935639], [85.18227939984175, 27.97006122825306], [85.18197633546541, 27.969948925639322], [85.18167236385788, 27.969890759022846], [85.18136839261491, 27.969832591749213], [85.18106532992775, 27.969720287198342], [85.18076226790164, 27.969607982007275], [85.18045829805142, 27.969549812779604], [85.18015523720045, 27.969437506299915], [85.17985217701057, 27.96932519918006], [85.17954911748176, 27.96921289142004], [85.17924605861403, 27.969100583019866], [85.17894390962738, 27.968934137417236], [85.17864176159324, 27.968767691190543], [85.17840149901441, 27.9685479152817], [85.17816123740849, 27.968328138992298], [85.17798286117703, 27.968055033445502], [85.17780448581718, 27.967781927699402], [85.17768708571751, 27.96750962953221], [85.17750871194126, 27.967236523459356], [85.1773913131085, 27.966964225082062], [85.17727391483066, 27.96669192662214], [85.17715651710773, 27.96641962807959], [85.17703911993969, 27.96614732945441], [85.17692172332653, 27.965875030746606], [85.17674335398154, 27.96560192383726], [85.17650401238343, 27.96532800851094], [85.1762637615699, 27.96510822932675], [85.17596162831744, 27.96494177782027], [85.17565949601735, 27.964775325689924], [85.17535645382532, 27.964663009423774], [85.17505250130063, 27.96460482899701], [85.1747494602838, 27.964492511442728], [85.17444641992803, 27.964380193248527], [85.17414338023333, 27.964267874414414], [85.17384034119969, 27.964155554940405], [85.17353730282713, 27.964043234826516], [85.17323426511564, 27.96393091407274], [85.17293122806522, 27.963818592679104], [85.17262727950438, 27.9637604070582], [85.17232333130829, 27.96370222078042], [85.17202029594736, 27.963589897450646], [85.17171634863024, 27.96353170986785], [85.17147428632309, 27.96342019567284], [85.17129410916267, 27.96325535519783], [85.17111484545029, 27.963036378136902], [85.17093466946758, 27.962871537238293], [85.17075449403195, 27.962706696125817], [85.17051243460719, 27.962595180359056], [85.17020940438809, 27.962482853256827], [85.1699673460677, 27.962371336577355], [85.16978717296475, 27.962206494295156], [85.16960791402144, 27.961987515464482], [85.16942865578973, 27.96176853642786], [85.16931036902345, 27.961550368517067], [85.16913111208581, 27.961331389142142], [85.16895185585975, 27.96111240956127], [85.16877260034528, 27.960893429774465], [85.16865522981738, 27.960621125064435], [85.16853785984394, 27.960348820271975], [85.16842049042494, 27.960076515397084], [85.1683031215604, 27.959804210439774], [85.16818575325026, 27.959531905400027], [85.16806838549456, 27.959259600277875], [85.16795101829327, 27.958987295073307], [85.16783365164635, 27.958714989786326], [85.16771628555381, 27.958442684416937], [85.16759892001566, 27.958170378965143], [85.16742058639274, 27.957897261386034], [85.16724225364072, 27.957624143608054], [85.16706392175956, 27.957351025631194], [85.16682462259135, 27.957077095168366], [85.16658440969454, 27.95685730061993], [85.16634328273507, 27.95669164196919], [85.16604118870148, 27.956525170307465], [85.16573818029401, 27.956412834283892], [85.16543425707215, 27.956354633873524], [85.16513124983996, 27.956242296562646], [85.1648282432688, 27.956129958612284], [85.16452432144028, 27.95607175624972], [85.16422131604443, 27.955959417012092], [85.16391831130967, 27.955847077135015], [85.16361530723597, 27.955734736618496], [85.16331322032906, 27.955568259268603], [85.16301205102172, 27.95534764510899], [85.16277184987412, 27.95512784439885], [85.16259353332826, 27.954854721262134], [85.1624761842581, 27.95458241210048], [85.16241980219263, 27.95431091704804], [85.16242438666856, 27.954040236158036], [85.16242897108079, 27.95376955525668], [85.16243355542936, 27.953498874343992], [85.16243813971424, 27.95322819341996], [85.16244272393544, 27.95295751248458], [85.16244730809298, 27.95268683153786], [85.16245189218682, 27.952416150579804], [85.162456476217, 27.95214546961041], [85.16246106018352, 27.951874788629667], [85.16246564408635, 27.951604107637586], [85.16247022792551, 27.951333426634157], [85.162474811701, 27.951062745619396], [85.1624793954128, 27.950792064593298], [85.16248397906095, 27.950521383555852], [85.16248856264542, 27.95025070250706], [85.16249314616624, 27.949980021446937], [85.16249772962337, 27.94970934037547], [85.16250231301683, 27.949438659292664], [85.16256785991419, 27.949168792187365], [85.16269436986751, 27.94889973895091], [85.16282087915994, 27.948630685558236], [85.1629473877915, 27.948361632009348], [85.16307389576221, 27.94809257830424], [85.16307847740707, 27.947821897070202], [85.16296113363718, 27.947549588362673], [85.16284379042119, 27.94727727957288], [85.16266548540122, 27.947004156839892], [85.16248718125152, 27.946731033908275], [85.1623088779721, 27.94645791077803], [85.16213057556291, 27.94618478744917], [85.16195227402397, 27.945911663921702], [85.16177397335525, 27.945638540195638], [85.16153471215821, 27.945364601953052], [85.16129545215286, 27.94509066334158], [85.16111715441362, 27.944817538876443], [85.16093885754451, 27.944544414212743], [85.16082152230362, 27.94427210398203], [85.1607041876165, 27.943999793669114], [85.16058685348308, 27.943727483273985], [85.16040855961603, 27.943454358031065], [85.16023026661904, 27.94318123258962], [85.1600519744921, 27.94290810694966], [85.15987368323519, 27.942634981111173], [85.15975635249787, 27.94236267012638], [85.15963902231418, 27.94209035905941], [85.15952169268414, 27.941818047910267], [85.15934340442887, 27.94154492149274], [85.15922607606295, 27.941272610134583], [85.15910874825066, 27.94100029869427], [85.15899142099194, 27.9407279871718], [85.15881313573807, 27.94045486017532], [85.15869580974339, 27.94018254844387], [85.15857848430228, 27.939910236630283], [85.15840020133915, 27.939637109181724], [85.15822191924589, 27.93936398153473], [85.15804363802245, 27.939090853689322], [85.15786535766881, 27.938817725645496], [85.1576261207497, 27.93854378153697], [85.15738688502177, 27.93826983705984], [85.15720860759632, 27.937996708277574], [85.15709128799506, 27.937724395405052], [85.15691301214964, 27.937451266297657], [85.15673473717396, 27.937178136991903], [85.15661741954668, 27.936905823783782], [85.1565001024728, 27.93663351049356], [85.1563218297873, 27.93636038073597], [85.15614355797145, 27.936087250780048], [85.1560262428714, 27.935814937154294], [85.1559089283247, 27.935542623446462], [85.15579161433133, 27.935270309656563], [85.15573525626945, 27.934998812420055], [85.15567889844975, 27.934727315163805], [85.15562254087219, 27.934455817887812], [85.15556618353679, 27.934184320592074], [85.15544887168255, 27.933912006570417], [85.15533156038155, 27.933639692466702], [85.15521424963383, 27.933367378280945], [85.15503598515143, 27.933094247146098], [85.15485772153849, 27.932821115812985], [85.154679458795, 27.932547984281616], [85.15443932308492, 27.93232817154974], [85.15419826820329, 27.932162494539156], [85.15395629380902, 27.932050953231673], [85.15365152552054, 27.932046866242445], [85.15334491616386, 27.932151050728624], [85.15303738552728, 27.932309370565694], [85.15272893313261, 27.932521825721686], [85.152419558494, 27.932788416163266], [85.15211018233813, 27.93305500582664], [85.1518017260473, 27.933267458693805], [85.15149419010736, 27.93342577479809], [85.15118757499656, 27.933529954171448], [85.1508828030357, 27.933525860856708], [85.15057987513516, 27.933413494909686], [85.15033882424595, 27.933247811329792], [85.15015965040527, 27.933028810442035], [85.14998139954449, 27.932755673382847], [85.14986410331741, 27.93248335529227], [85.14980776125348, 27.932211856304132], [85.1497514194315, 27.931940357296302], [85.14969507785142, 27.931668858268793], [85.14969968966307, 27.93139817843196], [85.14964334841255, 27.93112667938273], [85.14958700740391, 27.930855180313813], [85.14953066663719, 27.93058368122522], [85.14947432611237, 27.930312182116943], [85.14935703345094, 27.93003986369041], [85.14923974134248, 27.929767545181953], [85.14912244978699, 27.929495226591587], [85.14900515878443, 27.92922290791931], [85.14894882008602, 27.92895140864209], [85.149014384831, 27.928681548253532], [85.14920185212463, 27.928413326536074], [85.14938931846712, 27.92814510450884], [85.14957678385848, 27.927876882171848], [85.14976424829874, 27.92760865952509], [85.1499507897139, 27.927394572576485], [85.1500763795843, 27.927179666429943], [85.15026291962113, 27.926965578980656], [85.15044945891198, 27.926751491236907], [85.15057504700164, 27.92653658453316], [85.15064060592779, 27.92626672301603], [85.15076711464613, 27.92599768003501], [85.15083267269357, 27.92572781836783], [85.1508982303762, 27.925457956643747], [85.15096378769404, 27.925188094862776], [85.15102934464709, 27.92491823302491], [85.15103395182386, 27.924647552718394], [85.15103855893662, 27.92437687240053], [85.15104316598536, 27.924106192071324], [85.15104777297009, 27.923835511730783], [85.15105237989081, 27.923564831378897], [85.1510569867475, 27.923294151015675], [85.1510006450412, 27.923022652258197], [85.15088335523446, 27.922750335053557], [85.1507051177976, 27.922477199267966], [85.15046501159028, 27.922257380750885], [85.15016303667399, 27.9220908791844], [85.14986014079976, 27.92197851304374], [85.14955724558587, 27.92186614626488], [85.14925342882802, 27.92180791487826], [85.14895053478834, 27.92169554681464], [85.14864764140904, 27.921583178112844], [85.148345671334, 27.921416672767684], [85.14804370220978, 27.921250166800753], [85.14774173403639, 27.921083660212034], [85.14743884373812, 27.9209712889829], [85.14713595410025, 27.920858917115655], [85.14683214175153, 27.920800680574366], [85.14652740624479, 27.920796579332436], [85.1462226708022, 27.920792477416935], [85.14591793542381, 27.92078837482786], [85.14561412408733, 27.920730135638465], [85.14531031311576, 27.9206718957937], [85.14500650250908, 27.920613655293568], [85.14470269226729, 27.92055541413809], [85.14439888239039, 27.920497172327263], [85.14409507287841, 27.920438929861092], [85.14379126373139, 27.920380686739584], [85.14348837996785, 27.92026830709768], [85.14318642202728, 27.92010179096069], [85.14288539034138, 27.919881138352554], [85.14258435989157, 27.919660485138355], [85.14228425626177, 27.919385695483157], [85.14198415414812, 27.919110905236533], [85.14168405355059, 27.91883611439851], [85.14138395446918, 27.91856132296911], [85.14108385690383, 27.91828653094836], [85.14078376085457, 27.918011738336272], [85.14048273990498, 27.917791080925348], [85.1401817201914, 27.91757042290852], [85.13994164664719, 27.91735058743572], [85.13970064729104, 27.917184887357678], [85.13945872178228, 27.917073322656005], [85.13921679678953, 27.916961757551455], [85.13897394517967, 27.91690432779699], [85.13867014924203, 27.91684607395418], [85.13836635366943, 27.916787819456196], [85.13806255846185, 27.91672956430305], [85.13775969134855, 27.91661717277742], [85.13745682489576, 27.916504780614012], [85.13715303108143, 27.916446523513212], [85.13684923763218, 27.916388265757263], [85.1365463728681, 27.916275871663622], [85.13624258029803, 27.916217612606314], [85.13593971670862, 27.91610521722871], [85.13563685377973, 27.915992821213376], [85.1353349204172, 27.915826288911635], [85.13503298800546, 27.91565975598868], [85.13479292941881, 27.91543991218731], [85.13461381535663, 27.915220893456933], [85.1344965747208, 27.91494856438779], [85.13450122112653, 27.914677886232603], [85.13462775366439, 27.914408858935097], [85.1347542855417, 27.91413983148097], [85.13494175956791, 27.91387162913782], [85.13519017531155, 27.913604251635117], [85.1354385898194, 27.913336873615073], [85.13568700309149, 27.913069495077714], [85.13599635737486, 27.91280294079527], [85.13630571014262, 27.912536385734384], [85.13655411942509, 27.912269005410945], [85.13680252747184, 27.912001624570244], [85.13705093428297, 27.911734243212308], [85.13723839831502, 27.91146603717738], [85.13742586139652, 27.911197830832492], [85.13767426478324, 27.910930448157114], [85.13792266693437, 27.910663064964552], [85.13811012687663, 27.91039485750955], [85.13835852669787, 27.910127473399747], [85.13854598459534, 27.909859265234783], [85.13867250100046, 27.909590233285112], [85.1387380763524, 27.909320377740407], [85.13886459158338, 27.90905134554093], [85.13893016605654, 27.908781489845946], [85.13899574016483, 27.90851163409396], [85.13906131390823, 27.908241778284985], [85.13912688728676, 27.907971922419012], [85.1391315208012, 27.907701243275266], [85.13913615425126, 27.907430564120173], [85.13914078763692, 27.90715988495374], [85.13914542095819, 27.906889205775947], [85.1392109931082, 27.90661934977016], [85.13927656489334, 27.90634949370738], [85.13940307491148, 27.906080460671458], [85.13959052272352, 27.90581225047276], [85.13977796958534, 27.905544039964255], [85.13996541549689, 27.90527582914592], [85.14021379848349, 27.905008440714198], [85.14040124235085, 27.904740229186164], [85.14052774753033, 27.904471194832198], [85.14065425204974, 27.904202160321788], [85.1407198184667, 27.903932303238264], [85.14078538451892, 27.90366244609777], [85.1408509502064, 27.9033925889003], [85.14085557853602, 27.90312190931111], [85.14086020680132, 27.90285122971056], [85.14080389831473, 27.90257972775569], [85.14062571701007, 27.902306580979367], [85.14038567435485, 27.902086747405644], [85.14014563266909, 27.901866913453777], [85.13984372971512, 27.901700392281047], [85.13954090145855, 27.901588006378095], [85.13923807386193, 27.90147561983774], [85.13893524692531, 27.901363232659993], [85.13863242064866, 27.901250844844856], [85.13832959503202, 27.90113845639235], [85.13802769705961, 27.900971931453995], [85.13772580003727, 27.900805405894744], [85.13748576668685, 27.90058556766485], [85.13724573430582, 27.900365729056936], [85.13706756551424, 27.900092578201843], [85.1369503325956, 27.89982025114855], [85.13689403508003, 27.89954874803047], [85.13683773780552, 27.89927724489286], [85.13684237531793, 27.89900656576066], [85.13684701276587, 27.89873588661711], [85.13679071590637, 27.898464383456027], [85.13673441928792, 27.898192880275428], [85.13667812291045, 27.897921377075306], [85.13662182677402, 27.89764987385567], [85.13650459725427, 27.89737754651323], [85.13644830175384, 27.897106043237017], [85.1363920064944, 27.89683453994128], [85.13633571147595, 27.896563036626034], [85.13621848369283, 27.89629070909091], [85.13616218931035, 27.89601920571909], [85.13610589516885, 27.89574770232776], [85.13604960126828, 27.89547619891692], [85.1359933076087, 27.895204695486562], [85.13599794642566, 27.894934016324772], [85.13600258517818, 27.894663337151627], [85.1360072238662, 27.894392657967142], [85.13601186248974, 27.894121978771313], [85.13607650500497, 27.89390625963201], [85.13614114723924, 27.893690540443536], [85.13620578919257, 27.893474821205892], [85.13627043086497, 27.893259101919078], [85.13633507225643, 27.893043382583098], [85.13640064084034, 27.892773527335283], [85.13646620905956, 27.89250367203047], [85.13653177691408, 27.89223381666866], [85.13659734440394, 27.89196396124985], [85.13672384197618, 27.891694929653617], [85.13678940858787, 27.891425074084538], [85.13685497483489, 27.891155218458476], [85.13692054071728, 27.890885362775418], [85.13698610623501, 27.890615507035367], [85.13699074168512, 27.890344827540147], [85.1369953770708, 27.890074148033584], [85.13700001239204, 27.889803468515684], [85.13700464764884, 27.889532788986436], [85.13694835374633, 27.889261285758238], [85.13683113114638, 27.888988958778473], [85.13665298031857, 27.88871580791382], [85.13641390174021, 27.88844183295024], [85.13611296846045, 27.88822116948298], [85.13581203641488, 27.888000505410808], [85.13551017788288, 27.887833976608167], [85.13520739243359, 27.88772158305101], [85.13490460764393, 27.887609188856935], [85.13466367966834, 27.887443482851992], [85.13442275243737, 27.887277776457527], [85.13418182595102, 27.887112069673545], [85.13394182867565, 27.886892226667154], [85.13370183236896, 27.886672383283102], [85.13339998091406, 27.886505850161676], [85.13309813040864, 27.886339316419914], [85.13279720985805, 27.886118646254243], [85.13249536139512, 27.885952111279856], [85.13219351388163, 27.88578557568517], [85.13189259675119, 27.885564903690256], [85.13159075128019, 27.885398366863036], [85.1312889067586, 27.885231829415567], [85.13098799304827, 27.885011155591556], [85.13068708057193, 27.88479048116294], [85.13038523918583, 27.884623941870853], [85.1300843290365, 27.88440326622549], [85.12978342012117, 27.88418258997557], [85.12948251243984, 27.88396191312112], [85.12918160599246, 27.883741235662143], [85.12888163162776, 27.883466421895502], [85.1285816587764, 27.88319160753912], [85.12828168743832, 27.882916792593015], [85.1279817176135, 27.882641977057208], [85.12768174930193, 27.88236716093172], [85.12738178250358, 27.88209234421658], [85.12714274180314, 27.881818354757748], [85.12690370228994, 27.881544364932548], [85.12672558822788, 27.88127120275637], [85.12660839913973, 27.88099886844304], [85.1264912106024, 27.88072653404846], [85.12637402261586, 27.88045419957263], [85.12631775882075, 27.88018269318152], [85.12626149526602, 27.879911186771018], [85.12620523195173, 27.87963968034111], [85.12620989205931, 27.879369002083298], [85.12615362907192, 27.87909749563207], [85.12609736632494, 27.878825989161435], [85.12604110381834, 27.878554482671408], [85.12598484155212, 27.878282976161987], [85.12592857952629, 27.878011469633172], [85.1259332400016, 27.87774079135439], [85.12593790041213, 27.877470113064263], [85.12594256075785, 27.87719943476278], [85.1259472210388, 27.876928756449953], [85.12595188125493, 27.876658078125782], [85.1259565414063, 27.876387399790254], [85.12590028013976, 27.876115893230505], [85.12584401911359, 27.87584438665136], [85.12578775832773, 27.875572880052825], [85.12567057689331, 27.87530054514273], [85.12549154307733, 27.875081517452283], [85.12531250996926, 27.874862489557806], [85.1250716246732, 27.874696768575124], [85.12476981969486, 27.874530218534247], [85.12446708298005, 27.8744178035113], [85.12416434692476, 27.874305387852033], [85.12386067854872, 27.87424710717662], [85.12355794366637, 27.874134690236207], [85.12325427616857, 27.874076408262162], [85.1229515424592, 27.873963990040647], [85.12264880940934, 27.873851571182858], [85.12234607701903, 27.873739151688792], [85.12204241142643, 27.873680867126552], [85.12173968020915, 27.873568446351452], [85.1214369496514, 27.873456024940115], [85.12113515405318, 27.87328946735007], [85.12083335940402, 27.873122909140438], [85.12053250028823, 27.872902214784467], [85.12023070768066, 27.872735655343774], [85.11992891602213, 27.872569095283534], [85.11962619029804, 27.872456670106228], [85.11932440039419, 27.872290108798836], [85.11902167613529, 27.872177682357766], [85.11878080679163, 27.87201195107616], [85.11860085689914, 27.871847050753583], [85.11842184313427, 27.871628014747994], [85.1182418944136, 27.87146311400572], [85.11806288198383, 27.87124407758863], [85.11782201618267, 27.87107834478269], [85.11752023297709, 27.870911779815152], [85.11721845072051, 27.870745214228204], [85.11691666941296, 27.87057864802186], [85.11661488905443, 27.870412081196132], [85.11631310964492, 27.87024551375102], [85.11601133118442, 27.87007894568655], [85.11570955367294, 27.86991237700275], [85.11540871411479, 27.869691672307386], [85.11510787578986, 27.869470967008493], [85.11480797598142, 27.869196125728717], [85.11450807768514, 27.868921283860313], [85.11420818090099, 27.8686464414033], [85.11390828562895, 27.86837159835769], [85.11360839186901, 27.868096754723513], [85.11336941589367, 27.867822744049246], [85.11313044110449, 27.867548733009404], [85.11295238345332, 27.86727555532164], [85.11283524246308, 27.86700321119942], [85.11271810202284, 27.866730866996296], [85.11260096213259, 27.866458522712243], [85.11254473812116, 27.866187012215107], [85.11242759917444, 27.865914667813502], [85.11224954576168, 27.865641489374614], [85.11213240807128, 27.865369144766923], [85.11195435623021, 27.865095966006567], [85.1117763052545, 27.86482278704991], [85.11159825514409, 27.86454960789695], [85.11142020589898, 27.864276428547715], [85.11124215751917, 27.864003249002206], [85.11106411000462, 27.86373006926042], [85.11088606335532, 27.863456889322382], [85.1107689311588, 27.863184543757807], [85.11065179951211, 27.862912198112372], [85.11047375514048, 27.86263901772785], [85.11029571163401, 27.8623658371471], [85.11005675603857, 27.862091821542784], [85.10975688883894, 27.86181697062092], [85.1094570231509, 27.861542119110894], [85.10915715897437, 27.861267267012717], [85.10885729630937, 27.860992414326404], [85.10855743515586, 27.86071756105199], [85.10825757551383, 27.860442707189495], [85.10801862918788, 27.8601686884403], [85.10784059569318, 27.85989550509835], [85.10766256306347, 27.85962232156028], [85.1074835907665, 27.859403273051576], [85.10730461917669, 27.85918422433943], [85.10706473719362, 27.858964339361286], [85.10676300434523, 27.85879775302519], [85.1064603314334, 27.858685301269386], [85.10615765918105, 27.858572848878083], [85.10585404628172, 27.858514531032647], [85.10554949228984, 27.858510347705877], [85.10524493836341, 27.858506163707354], [85.10494038450246, 27.85850197903708], [85.10463583070697, 27.858497793695058], [85.10433127697699, 27.858493607681275], [85.10402672331251, 27.858489420995753], [85.10372216971354, 27.858485233638472], [85.1034176161801, 27.858481045609444], [85.10311306271217, 27.858476856908666], [85.10280850930978, 27.85847266753615], [85.10250395597296, 27.858468477491876], [85.10219940270171, 27.858464286775853], [85.10189484949602, 27.858460095388086], [85.10159029635594, 27.85845590332858], [85.10128574328142, 27.85845171059732], [85.10098119027252, 27.85844751719431], [85.10067569345094, 27.85849745813836], [85.10037019639012, 27.858547398391103], [85.10006469909004, 27.85859733795255], [85.09975825720853, 27.85870141181101], [85.09945181477768, 27.858805484957685], [85.09914537179748, 27.85890955739257], [85.09883892826792, 27.85901362911566], [85.09859245013331, 27.859172674908844], [85.09834691636057, 27.859277585283213], [85.09810043694068, 27.859436630125593], [85.09785490213761, 27.85954153956672], [85.09760936688247, 27.85964644854549], [85.09730386558448, 27.859696381764802], [85.09699836404734, 27.859746314292753], [85.09669380817977, 27.85974211124618], [85.0963883063181, 27.859792042401413], [85.09608280421733, 27.859841972865286], [85.09577730187743, 27.85989190263778], [85.09547179929842, 27.8599418317189], [85.09516629648033, 27.85999176010863], [85.09486079342314, 27.860041687806966], [85.09455529012688, 27.86009161481392], [85.09424978659153, 27.860141541129476], [85.09394428281715, 27.86019146675363], [85.09363877880371, 27.86024139168638], [85.09333422214877, 27.860237181154456], [85.09302966555973, 27.860232969950744], [85.09272510903656, 27.86022875807525], [85.09241960452836, 27.86027868027248], [85.09211409978114, 27.860328601778285], [85.09180859479494, 27.860378522592665], [85.09150308956977, 27.86042844271562], [85.09119758410563, 27.86047836214714], [85.09089302722236, 27.860474146192974], [85.09058847040507, 27.86046992956701], [85.09034577408798, 27.860412421105114], [85.09010402725721, 27.860300777557526], [85.08986323025964, 27.860134998944552], [85.08962338343422, 27.859915085285163], [85.08944539796394, 27.859641880484514], [85.08926741335823, 27.859368675488277], [85.08908942961705, 27.859095470296488], [85.08897235711784, 27.858823108982822], [85.08891619539135, 27.85855159167969], [85.08892094397629, 27.85828091843888], [85.0889256924952, 27.858010245186694], [85.08893044094809, 27.85773957192314], [85.08887427971571, 27.857468054595703], [85.08875625950982, 27.857249827804992], [85.0885145213023, 27.857138181852157], [85.08821187426169, 27.85702569116567], [85.087909227881, 27.856913199844136], [85.08760563185496, 27.856854842506614], [85.08730203619457, 27.856796484516178], [85.08699939150206, 27.8566839912721], [85.08669579672147, 27.85662563198503], [85.08639220230657, 27.85656727204507], [85.08608860825734, 27.856508911452224], [85.08578501457382, 27.8564505502065], [85.08548142125599, 27.85639218830789], [85.08517782830388, 27.85633382575642], [85.08487233243194, 27.856383731624764], [85.08456683632134, 27.856433636801736], [85.08426133997204, 27.856483541287325], [85.08395584338409, 27.85653344508153], [85.08365034655746, 27.856583348184355], [85.08334580190505, 27.856579116110105], [85.08304220988016, 27.856520748887693], [85.08273861822109, 27.856462381012427], [85.0824350269278, 27.85640401248433], [85.08213143600032, 27.856345643303385], [85.08182784543867, 27.85628727346962], [85.08152330193926, 27.856283037413586], [85.08121875850613, 27.856278800685903], [85.0809142151393, 27.85627456328657], [85.08060967183877, 27.856270325215572], [85.08030512860455, 27.856266086472928], [85.08000153949577, 27.856207712676294], [85.07969890495777, 27.85609520385328], [85.0793962710799, 27.85598269439541], [85.07909363786217, 27.855870184302695], [85.0787919599442, 27.85570353922735], [85.07849028297532, 27.855536893534214], [85.07818765202961, 27.855424381554535], [85.07788597681572, 27.855257734617577], [85.07758525776302, 27.855036952748275], [85.07728358459039, 27.854870304584153], [85.07698095686844, 27.85475779010034], [85.07667928545081, 27.854591140692513], [85.07637761498223, 27.854424490666993], [85.07607498953234, 27.85431197429645], [85.07577332081877, 27.85414532302731], [85.07547260927083, 27.853924536884477], [85.07517189895549, 27.85370375014018], [85.07487023337528, 27.85353709703477], [85.07456856874411, 27.853370443311746], [85.07426594827565, 27.853257923194388], [85.07396237153267, 27.85319953665638], [85.07365783806989, 27.853195283670054], [85.07335330467367, 27.85319103001216], [85.07304781395338, 27.853240909867225], [85.07274232299484, 27.853290789030893], [85.07243683179807, 27.85334066750318], [85.07213038250856, 27.853444679437672], [85.07182297465708, 27.853602824802575], [85.07151652411444, 27.853706835302162], [85.07121007302342, 27.853810845089573], [85.07090362138406, 27.853914854164813], [85.07059716919636, 27.854018862527855], [85.0702907164603, 27.854122870178713], [85.06998426317594, 27.854226877117362], [85.06973775744109, 27.854385869853306], [85.0694912509997, 27.85454486210875], [85.06924474385178, 27.854703853883702], [85.06899823599731, 27.854862845178147], [85.06881167539902, 27.855076822894727], [85.06856516608258, 27.855235813332275], [85.06831865605957, 27.855394803289286], [85.06807214533, 27.85555379276576], [85.0678265939783, 27.855658647763473], [85.06752013427388, 27.85576264886605], [85.06721271362389, 27.855920783233262], [85.066904331551, 27.85613305083187], [85.06659690901424, 27.856291183719936], [85.06628948561361, 27.856449315873952], [85.06604296966712, 27.85660830142904], [85.06579645301407, 27.85676728650351], [85.06554993565443, 27.85692627109735], [85.06530341758821, 27.857085255210553], [85.06505689881541, 27.857244238843112], [85.06475043229914, 27.85734823340697], [85.0644439652346, 27.857452227258424], [85.06413845961299, 27.857502086531877], [85.06383295375336, 27.85755194511376], [85.06352744765574, 27.85760180300404], [85.06328188769987, 27.857706649422727], [85.06303632729258, 27.85781149537857], [85.06285071272103, 27.857971330273443], [85.06266413485687, 27.858185298700754], [85.06253750261922, 27.85845425637213], [85.0623499603519, 27.858722358087554], [85.06216241713503, 27.858990459491324], [85.06191492648097, 27.85920357079685], [85.06166839815351, 27.859362547831097], [85.06136192279018, 27.85946653436624], [85.0610564104827, 27.85951638643799], [85.06075186169247, 27.859512104076938], [85.06044731296925, 27.85950782104418], [85.06014276431303, 27.859503537339698], [85.05983821572384, 27.8594992529635], [85.05953366720169, 27.859494967915573], [85.0592291187466, 27.859490682195947], [85.0589864446598, 27.859433119451598], [85.05874473559953, 27.859321422614393], [85.05856490138456, 27.859156449213412], [85.05844694196654, 27.858938199486357], [85.05832994792378, 27.858665816005857], [85.05815204539621, 27.858392574803286], [85.05803505260612, 27.85812019111918], [85.05791806036409, 27.857847807355267], [85.05780106867013, 27.857575423511545], [85.05768407752423, 27.857303039588007], [85.05762799517689, 27.857031513446785], [85.05751100497059, 27.85675912940762], [85.05739401531231, 27.85648674528866], [85.05721611842091, 27.85621350309592], [85.05709913001512, 27.855941118773423], [85.05692026919024, 27.855722009910473], [85.05674044348767, 27.855557034488964], [85.05649874533376, 27.855445334206397], [85.05625704769554, 27.855333633523447], [85.05595444339225, 27.855221073917157], [85.05565280585628, 27.855054380064455], [85.0553521355167, 27.854833551990573], [85.0550524327945, 27.854558589719392], [85.05475176506096, 27.85433776045216], [85.05445013189501, 27.854171064165026], [85.05414753286767, 27.854058500832775], [85.05384396754184, 27.8540000704288], [85.0535404025827, 27.853941639372387], [85.0532378052463, 27.85382907411966], [85.05299708217008, 27.853663234508584], [85.05275635983786, 27.853497394510615], [85.05251563824959, 27.853331554125727], [85.05227394969812, 27.853219846871987], [85.05203226166238, 27.85310813921796], [85.05172870038737, 27.85304970434037], [85.05142513947912, 27.852991268810396], [85.05112157893763, 27.85293283262802], [85.0508180187629, 27.85287439579328], [85.05051349038771, 27.8528700917701], [85.05020896207988, 27.852865787075398], [85.0499044338394, 27.85286148170919], [85.0495999056663, 27.852857175671453], [85.04929537756057, 27.852852868962216], [85.04899084952221, 27.85284856158146], [85.04868632155127, 27.852844253529184], [85.04838179364774, 27.8528399448054], [85.04807726581161, 27.852835635410106], [85.04777176811342, 27.852885458718514], [85.04746627017785, 27.85293528133533], [85.04722070740738, 27.85304009895831], [85.0469741738474, 27.853199049465243], [85.04672666911107, 27.85341213282846], [85.04647916340791, 27.853625215691757], [85.04623165673789, 27.853838298055127], [85.04592421383401, 27.853996383694202], [85.04567767627611, 27.85415533165501], [85.04549204430374, 27.85431514227756], [85.0453064117875, 27.85447495261888], [85.04518071389663, 27.854689759245087], [85.04505404412568, 27.85495869899611], [85.04486646691255, 27.855226775170994], [85.04461798182828, 27.855493987498473], [85.04443040257271, 27.855762062958647], [85.04418288700404, 27.85597514112933], [85.04393537046842, 27.85618821879997], [85.04368882506779, 27.856347162755114], [85.04344325118909, 27.856451973022455], [85.04313774178054, 27.85650178541099], [85.04283223213471, 27.85655159710779], [85.04252769493854, 27.85654727493661], [85.04222315781, 27.85654295209382], [85.04191959373553, 27.85648449542242], [85.04161603002817, 27.856426038098647], [85.04137434722726, 27.85631431200119], [85.04119454546539, 27.85614931746151], [85.04101571766004, 27.855930189579375], [85.04083689056097, 27.855711061495427], [85.0406590377377, 27.85543780008538], [85.0404811857776, 27.855164538481247], [85.04024242825618, 27.85489041123336], [85.04000367191904, 27.854616283623077], [85.03982582286675, 27.854343021295303], [85.03964700066206, 27.854123891875712], [85.03940727332088, 27.853903896464097], [85.0391665727083, 27.853738033768117], [85.03892489848612, 27.853626303768248], [85.03862134468187, 27.85356784031592], [85.03831779124482, 27.85350937621134], [85.03801326337349, 27.853505044508513], [85.03770776061468, 27.85355484517786], [85.03740225761884, 27.853604645155503], [85.0370957791204, 27.85370857746403], [85.03678930007467, 27.853812509059736], [85.03648282048165, 27.853916439942616], [85.0361773160763, 27.85396623712243], [85.03587181143398, 27.85401603361051], [85.03556728259449, 27.854011696436828], [85.03526275382286, 27.854007358591616], [85.03495822511911, 27.854003020074877], [85.03465369648325, 27.853998680886612], [85.03434916791528, 27.85399434102682], [85.03404463941523, 27.853990000495507], [85.03374011098309, 27.85398565929267], [85.03343558261886, 27.853981317418302], [85.03313105432258, 27.85397697487242], [85.03282652609424, 27.853972631655008], [85.03252199793387, 27.853968287766076], [85.03221746984147, 27.853963943205624], [85.03191294181704, 27.853959597973645], [85.03160939186164, 27.853901119228166], [85.03136772590189, 27.853789376360282], [85.03112703868734, 27.853623500264046], [85.03094823580713, 27.853404360496036], [85.03083131711344, 27.853131957286614], [85.03071439896686, 27.852859553997927], [85.03053657658582, 27.85258628096157], [85.0304196596899, 27.852313877470564], [85.0302418388752, 27.85204060411741], [85.03000311461938, 27.85176646069008], [85.0298252956894, 27.851493186878795], [85.02970838160766, 27.851220782895577], [85.02959146807292, 27.85094837883313], [85.0295354587604, 27.850676844774], [85.02947944968463, 27.850405310696406], [85.0294234408456, 27.850133776600355], [85.02930652902936, 27.84986137235245], [85.02918961776007, 27.849588968025323], [85.02907270703773, 27.849316563619002], [85.02895579686232, 27.849044159133467], [85.02883888723383, 27.84877175456873], [85.02872099894046, 27.848553482714937], [85.02854220876488, 27.848334340351112], [85.02830251709409, 27.84811432725934], [85.02806282638983, 27.847894313794033], [85.02776125506296, 27.847727561968135], [85.02746066448286, 27.847506676769548], [85.02715909519823, 27.84733992372028], [85.02685752686331, 27.847173170055083], [85.02655595947807, 27.847006415773958], [85.02625439304254, 27.84683966087693], [85.02595282755668, 27.846672905364013], [85.02565126302053, 27.846506149235214], [85.02534871863718, 27.84639352518743], [85.02504617491513, 27.846280900506223], [85.0247436318544, 27.846168275191598], [85.02444108945501, 27.846055649243574], [85.02413854771694, 27.845943022662166], [85.02383698816482, 27.845776262795574], [85.02353444789497, 27.845663634956427], [85.02323289009942, 27.845496873849704], [85.02293133325357, 27.845330112127225], [85.02262977735738, 27.845163349788997], [85.02238912265058, 27.844997459908733], [85.02221035111945, 27.844778310184402], [85.02203158029394, 27.844559160258832], [85.02185182772389, 27.844394142730106], [85.02167305822998, 27.844174992397942], [85.02143338981674, 27.843954968425898], [85.02113282287931, 27.843734070515662], [85.02083225717435, 27.843513172006485], [85.02059357495308, 27.84323901415045], [85.02035489391507, 27.84296485593301], [85.02017711293053, 27.84269157133775], [85.02006023152194, 27.84241916057646], [85.02000424921994, 27.842147623780356], [85.01994826715423, 27.84187608696589], [85.01995318358028, 27.841605424184202], [85.01995809993797, 27.841334761391092], [85.02002391418353, 27.841064972590953], [85.02008972806154, 27.84079518373264], [85.02021643923452, 27.840526268720104], [85.02040404726603, 27.84025822736243], [85.02059165434805, 27.83999018569203], [85.02077926048058, 27.83972214370892], [85.02102776275792, 27.839454974928277], [85.02121536684882, 27.839186932229293], [85.02140296999028, 27.83891888921762], [85.02159057218233, 27.838650845893273], [85.02171727690171, 27.838381929102987], [85.02184398095994, 27.838113012154132], [85.02203158058934, 27.83784496807275], [85.02215828317985, 27.837576050743163], [85.02228498510922, 27.83730713325503], [85.0224116863775, 27.837038215608352], [85.02253838698468, 27.836769297803137], [85.02266508693079, 27.836500379839382], [85.02279178621582, 27.8362314617171], [85.02291848483982, 27.835962543436292], [85.02304518280278, 27.83569362499696], [85.02311098518159, 27.835423833945676], [85.02311589242083, 27.835153170392758], [85.02312079959184, 27.834882506828425], [85.0231257066946, 27.834611843252677], [85.0231306137291, 27.83434117966552], [85.02313552069535, 27.83407051606694], [85.02314042759333, 27.833799852456956], [85.0230844405591, 27.833528316424825], [85.02302845376114, 27.833256780374313], [85.02291157364549, 27.83298437183407], [85.02273380068121, 27.832711090672877], [85.02249513534558, 27.83243693667903], [85.02225647119253, 27.832162782323906], [85.02195691531537, 27.831887754746532], [85.0217182536893, 27.831613599571494], [85.02147959324576, 27.83133944403522], [85.02124093398474, 27.83106528813773], [85.02100227590621, 27.83079113187903], [85.02076361901018, 27.830516975259147], [85.0204640713635, 27.830241944805923], [85.02016452522565, 27.829966913769933], [85.01986498059657, 27.82969188215121], [85.01956543747623, 27.829416849949766], [85.0192658958646, 27.829141817165635], [85.0189663557617, 27.828866783798833], [85.01872770811329, 27.828592624066797], [85.0185499524339, 27.828319338261668], [85.01843308824631, 27.828046926595047], [85.01831622460472, 27.82777451484953], [85.01819936150909, 27.827502103025104], [85.01808249895944, 27.82722969112178], [85.01790474695068, 27.82695640463311], [85.01766610595998, 27.826682243347506], [85.01742746615145, 27.826408081700915], [85.01724971704473, 27.826134794491878], [85.01713285816267, 27.82586238193197], [85.01713777824877, 27.825591718984505], [85.01720358733083, 27.825321930821072], [85.01733028496456, 27.825053017331303], [85.01745698193747, 27.82478410368295], [85.01752278962121, 27.82451431527142], [85.01752770846012, 27.82424365220709], [85.01753262723061, 27.823972989131338], [85.01753754593265, 27.82370232604417], [85.01754246456629, 27.823431662945595], [85.0175473831315, 27.823160999835594], [85.01755230162829, 27.822890336714178], [85.01749633248686, 27.822618799019665], [85.01744036358137, 27.822347261306845], [85.01738439491186, 27.822075723575704], [85.01732842647826, 27.821804185826256], [85.01727245828062, 27.82153264805849], [85.0172164903189, 27.821261110272424], [85.0171605225931, 27.82098957246804], [85.01710455510323, 27.82071803464535], [85.01704858784927, 27.820446496804347]]}, "properties": {"name": "Main river (D8 flow path)", "value": 0, "unit": ""}}]}