<?xml version="1.0" encoding="UTF-8"?>
<kml xmlns="http://www.opengis.net/kml/2.2" xmlns:gx="http://www.google.com/kml/ext/2.2">
    <Document id="129">
        <Style id="132">
            <LineStyle id="133">
                <colorMode>normal</colorMode>
                <width>3</width>
            </LineStyle>
        </Style>
        <Style id="136">
            <LineStyle id="137">
                <colorMode>normal</colorMode>
                <width>3</width>
            </LineStyle>
        </Style>
        <Style id="140">
            <LineStyle id="141">
                <colorMode>normal</colorMode>
                <width>3</width>
            </LineStyle>
        </Style>
        <Style id="144">
            <LineStyle id="145">
                <colorMode>normal</colorMode>
                <width>3</width>
            </LineStyle>
        </Style>
        <Style id="148">
            <LineStyle id="149">
                <colorMode>normal</colorMode>
                <width>3</width>
            </LineStyle>
        </Style>
        <Style id="152">
            <LineStyle id="153">
                <colorMode>normal</colorMode>
                <width>3</width>
            </LineStyle>
        </Style>
        <Style id="156">
            <LineStyle id="157">
                <colorMode>normal</colorMode>
                <width>3</width>
            </LineStyle>
        </Style>
        <Style id="160">
            <LineStyle id="161">
                <colorMode>normal</colorMode>
                <width>3</width>
            </LineStyle>
        </Style>
        <name>stations</name>
        <Placemark id="131">
            <name>Breach outlet</name>
            <styleUrl>#132</styleUrl>
            <LineString id="130">
                <coordinates>85.17631983182035,27.969865814833895,0.0 85.17967149781005,27.9667184644846,0.0</coordinates>
            </LineString>
        </Placemark>
        <Placemark id="135">
            <name>S1 (0.5 km)</name>
            <styleUrl>#136</styleUrl>
            <LineString id="134">
                <coordinates>85.17395660136322,27.967881915656687,0.0 85.17716861886093,27.964865761457872,0.0</coordinates>
            </LineString>
        </Placemark>
        <Placemark id="139">
            <name>S2 (2 km)</name>
            <styleUrl>#140</styleUrl>
            <LineString id="138">
                <coordinates>85.16430874821401,27.95829116462496,0.0 85.16668283188162,27.956062004496907,0.0</coordinates>
            </LineString>
        </Placemark>
        <Placemark id="143">
            <name>S3 (5 km)</name>
            <styleUrl>#144</styleUrl>
            <LineString id="142">
                <coordinates>85.15099503351668,27.93717304217402,0.0 85.1557426455626,27.93271510416821,0.0</coordinates>
            </LineString>
        </Placemark>
        <Placemark id="147">
            <name>S4 (10 km)</name>
            <styleUrl>#148</styleUrl>
            <LineString id="146">
                <coordinates>85.14169965980365,27.90650786572875,0.0 85.13476372660612,27.900678542640378,0.0</coordinates>
            </LineString>
        </Placemark>
        <Placemark id="151">
            <name>S5 (15 km)</name>
            <styleUrl>#152</styleUrl>
            <LineString id="150">
                <coordinates>85.11438955243511,27.87385886660899,0.0 85.11997317191837,27.86861558133144,0.0</coordinates>
            </LineString>
        </Placemark>
        <Placemark id="155">
            <name>S6 (20 km)</name>
            <styleUrl>#156</styleUrl>
            <LineString id="154">
                <coordinates>85.07633993292428,27.855763888360926,0.0 85.07899257700767,27.85327410723588,0.0</coordinates>
            </LineString>
        </Placemark>
        <Placemark id="159">
            <name>S7 (25 km)</name>
            <styleUrl>#160</styleUrl>
            <LineString id="158">
                <coordinates>85.03974456573964,27.856772833707694,0.0 85.02854359897856,27.84733887400493,0.0</coordinates>
            </LineString>
        </Placemark>
    </Document>
</kml>
