{"type": "FeatureCollection", "features": [{"type": "Feature", "geometry": {"type": "LineString", "coordinates": [[85.17631983182035, 27.969865814833895], [85.17967149781005, 27.9667184644846]]}, "properties": {"name": "Breach outlet", "value": 0.15, "unit": "km"}}, {"type": "Feature", "geometry": {"type": "LineString", "coordinates": [[85.17395660136322, 27.967881915656687], [85.17716861886093, 27.964865761457872]]}, "properties": {"name": "S1 (0.5 km)", "value": 0.5, "unit": "km"}}, {"type": "Feature", "geometry": {"type": "LineString", "coordinates": [[85.16430874821401, 27.95829116462496], [85.16668283188162, 27.956062004496907]]}, "properties": {"name": "S2 (2 km)", "value": 2.0, "unit": "km"}}, {"type": "Feature", "geometry": {"type": "LineString", "coordinates": [[85.15099503351668, 27.93717304217402], [85.1557426455626, 27.93271510416821]]}, "properties": {"name": "S3 (5 km)", "value": 5.0, "unit": "km"}}, {"type": "Feature", "geometry": {"type": "LineString", "coordinates": [[85.14169965980365, 27.90650786572875], [85.13476372660612, 27.900678542640378]]}, "properties": {"name": "S4 (10 km)", "value": 10.0, "unit": "km"}}, {"type": "Feature", "geometry": {"type": "LineString", "coordinates": [[85.11438955243511, 27.87385886660899], [85.11997317191837, 27.86861558133144]]}, "properties": {"name": "S5 (15 km)", "value": 15.0, "unit": "km"}}, {"type": "Feature", "geometry": {"type": "LineString", "coordinates": [[85.07633993292428, 27.855763888360926], [85.07899257700767, 27.85327410723588]]}, "properties": {"name": "S6 (20 km)", "value": 20.0, "unit": "km"}}, {"type": "Feature", "geometry": {"type": "LineString", "coordinates": [[85.03974456573964, 27.856772833707694], [85.02854359897856, 27.84733887400493]]}, "properties": {"name": "S7 (25 km)", "value": 25.0, "unit": "km"}}]}