{"type": "FeatureCollection", "features": [{"type": "Feature", "geometry": {"type": "MultiPolygon", "coordinates": [[[[85.14709439041017, 27.929788382359817], [85.14709131175738, 27.92996883536146], [85.14729448596864, 27.929971569587988], [85.14728832925174, 27.930332475617565], [85.14749150416574, 27.930335209586033], [85.14728217242077, 27.930693381626977], [85.14748534800901, 27.93069611563687], [85.14747919173824, 27.93105702166753], [85.14768236802925, 27.931059755419348], [85.1476762123187, 27.931420661471257], [85.14787938931248, 27.931423394964998], [85.1476700564941, 27.931781567503], [85.14787323416216, 27.93178430103815], [85.1478640012229, 27.932325660110056], [85.1480671799309, 27.932328393407822], [85.14805487029474, 27.933050205515922], [85.14845815368754, 27.93323612443436], [85.1484519999901, 27.933597030530873], [85.14865518114374, 27.933599763074994], [85.14865210458944, 27.933780216136384], [85.14885528610877, 27.93378294840168], [85.14885220986315, 27.933963401478728], [85.14905539174813, 27.933966133465187], [85.1490523158112, 27.934146586557883], [85.14925549806186, 27.9341493182655], [85.14945252973044, 27.934512955926614], [85.14986197036808, 27.93433796476156], [85.14985889572293, 27.93451841792693], [85.15006207876188, 27.93452114847778], [85.15005900442544, 27.93470160165879], [85.15026218783008, 27.93470433193078], [85.15025911380236, 27.934884785127423], [85.15046229757266, 27.934887515120558], [85.15045922385367, 27.935067968332838], [85.15066240798964, 27.9350706980471], [85.15065933457937, 27.93525115127502], [85.15086251908102, 27.935253880710405], [85.15105955805403, 27.93561751636965], [85.15126274328699, 27.93562024524728], [85.15126581574256, 27.935439791967426], [85.15146900066678, 27.935442520524838], [85.15146592854842, 27.935622973825353], [85.15187229915665, 27.93562843008285], [85.15187537060058, 27.935447976740996], [85.15228174064816, 27.935453431758955], [85.15228481138924, 27.93527297837075], [85.1524879961185, 27.935275705409737], [85.15248492571462, 27.935456158818607], [85.15268811080952, 27.935458885578697], [85.15268504071443, 27.935639339003174], [85.15288822617497, 27.93564206548437], [85.15288515638865, 27.935822518924464], [85.15328845892915, 27.936008424505832], [85.15307913369695, 27.936366605478717], [85.15348550745794, 27.936372057108503], [85.15368255725036, 27.93673568947403], [85.15510487122913, 27.936754758933922], [85.15510180498177, 27.93693521257078], [85.15530499314389, 27.936937935601684], [85.15530192720539, 27.93711838925413], [85.15550511573312, 27.937121112006082], [85.15550205010345, 27.93730156567412], [85.15590536293503, 27.93748746402476], [85.15589923288272, 27.93784837141809], [85.15610242284463, 27.937851093353782], [85.15589310271687, 27.938209278791263], [85.15609629335327, 27.93821200076819], [85.15609322856503, 27.938392454467827], [85.15649961059752, 27.938397897564133], [85.15649654645541, 27.93857835129996], [85.1566997378515, 27.938581072419332], [85.15669667401828, 27.938761526170737], [85.15689986578, 27.938764247011118], [85.15689680225569, 27.938944700778084], [85.15709999438306, 27.938947421339478], [85.15709693116763, 27.939127875122008], [85.15750025361278, 27.939313769205906], [85.1574941283892, 27.939674676828165], [85.1576973219508, 27.939677396573156], [85.15769425963376, 27.939857850397328], [85.15789745356099, 27.939860569863306], [85.15789439155287, 27.94004102370304], [85.15829771880512, 27.940226915653227], [85.15829159599626, 27.94058782338985], [85.15849479135777, 27.94059054203936], [85.15849173024812, 27.940770995920705], [85.1582885345493, 27.940768277250605], [85.15828547307399, 27.94094873110631], [85.1584886691101, 27.940951449797], [85.15848254674904, 27.94131235753448], [85.15868574348812, 27.94131507596672], [85.15868268260238, 27.94149552984849], [85.15908601660075, 27.941681419773154], [85.1592769742076, 27.942405953051175], [85.15968031261959, 27.94259184142036], [85.15967725322209, 27.942772295369757], [85.15947405364268, 27.942769578271047], [85.15947099387951, 27.94295003219482], [85.15967419379626, 27.94295274931411], [85.15966501534878, 27.943494111116923], [85.15986821630591, 27.943496827998285], [85.15986515710411, 27.943677281943057], [85.15966195580961, 27.943674565041114], [85.15965583664627, 27.944035472874376], [85.15985903861548, 27.944038189817462], [85.15985292001352, 27.944399097671717], [85.1600561226858, 27.944401814356286], [85.16005306367971, 27.94458226829643], [85.15984986067005, 27.944579551591282], [85.1598437418981, 27.944940459415292], [85.16004694558251, 27.944943176161583], [85.16004082737197, 27.94530408400658], [85.15983762301282, 27.94530136721914], [85.15983456352768, 27.945481821113507], [85.1602379141104, 27.945667708360318], [85.16023179634803, 27.946028616206128], [85.16084141372914, 27.94603676411812], [85.16083223990974, 27.946578126034144], [85.1610354467723, 27.94658084146712], [85.16102933142591, 27.946941749427058], [85.16123253899161, 27.946944464601458], [85.16122948161336, 27.947124918594426], [85.16143268954478, 27.947127633489682], [85.16142657537817, 27.94748854150162], [85.16162978401276, 27.94749125613828], [85.16162672722442, 27.947671710157245], [85.16182993622473, 27.947674424514744], [85.1618268797455, 27.94785487854923], [85.16203008911155, 27.947857592627575], [85.16202703294145, 27.948038046677564], [85.1624303969098, 27.948223928062262], [85.16242734135797, 27.94840438214327], [85.16222413092302, 27.948401668602713], [85.16221801905958, 27.94876257670851], [85.16180854027573, 27.94893760265027], [85.16180548359836, 27.94911805664946], [85.1620086953265, 27.94912077087167], [85.16200258256174, 27.94948167889605], [85.1622057949931, 27.949484392859635], [85.16219968279006, 27.949845300904954], [85.16199646968379, 27.94984258690027], [85.16199341320234, 27.95002304089482], [85.16219662664608, 27.95002575492005], [85.1621935704738, 27.950206208930112], [85.1619903566926, 27.950203494884327], [85.16195367636777, 27.952368942365265], [85.16215689419887, 27.952371656657665], [85.16215383765865, 27.952552110602202], [85.16195061949004, 27.952549396289253], [85.16192616344911, 27.95399302749963], [85.16172294260862, 27.953990312722482], [85.16171988513858, 27.954170766580543], [85.1619231063166, 27.95417348137825], [85.1619200491558, 27.95435393525183], [85.16171682764022, 27.95435122043356], [85.16190782022943, 27.95507575069571], [85.16170459736367, 27.955073035795223], [85.16170153972375, 27.95525348962304], [85.16190476292708, 27.955256204544074], [85.16189864823741, 27.95561711222569], [85.1625083200426, 27.955625255313258], [85.16250526366801, 27.955805709208153], [85.16291171235478, 27.95581113647523], [85.16290865662704, 27.955991590406175], [85.16311188135043, 27.955994303610524], [85.16310882593196, 27.956174757556976], [85.16351222136717, 27.956360637089794], [85.16350611173907, 27.95672154503963], [85.16370933789766, 27.956724257426682], [85.16370628337876, 27.956904711414573], [85.1645191896463, 27.956915558046596], [85.16452224281484, 27.95673510397658], [85.16492869544308, 27.956740525452574], [85.16492564294971, 27.95692097956363], [85.1655353231168, 27.956929109590458], [85.16553227160794, 27.957109563758024], [85.16593872586914, 27.95711498231778], [85.16593567500722, 27.95729543652132], [85.16633907984163, 27.95748130816229], [85.16633297932694, 27.95784221662621], [85.16653620790682, 27.957844924938687], [85.16652400788894, 27.958566741888074], [85.16672723784751, 27.95856944998272], [85.16672418811005, 27.95874990422796], [85.16713064878715, 27.95875531955868], [85.16712150143111, 27.959296682387173], [85.16752491574704, 27.95948255094852], [85.16771595460368, 27.9602070749062], [85.16791918777035, 27.96020978138612], [85.16791613980463, 27.96039023570898], [85.16811937333719, 27.960392941909507], [85.1681132779964, 27.96075385058107], [85.16831651223247, 27.9607565565227], [85.16831346485739, 27.9609370108714], [85.16811023028366, 27.96093430490929], [85.16810718254271, 27.96111475923248], [85.16831041745412, 27.96111746521507], [85.16830127507497, 27.961658828215825], [85.16809803915055, 27.961656122171778], [85.16809499129673, 27.961836576474802], [85.16829822755881, 27.96183928253933], [85.16829213244185, 27.962200191171224], [85.16849536940751, 27.96220289697683], [85.16848927485306, 27.962563805629536], [85.1686925125223, 27.9625665111762], [85.16868946554044, 27.96274696551547], [85.16848622753349, 27.962744259948327], [85.16848013280973, 27.96310516857078], [85.16868337149208, 27.96310787417889], [85.16868032442558, 27.963288328503047], [85.16847708540553, 27.96328562287445], [85.16845880038777, 27.964368348590636], [85.16927176474229, 27.964379169796974], [85.16926871849147, 27.964559624147277], [85.16967824708878, 27.96438457860058], [85.16967520151341, 27.96456503299183], [85.17008168464815, 27.964570440636663], [85.17007863972003, 27.964750895063794], [85.17028188166742, 27.964753598456785], [85.17047903505312, 27.965117210470837], [85.17088552043977, 27.965122615838983], [85.17088856407334, 27.96494216134009], [85.1710918064712, 27.9649448635538], [85.17128896295286, 27.96530847454214], [85.17169849155123, 27.965133422976034], [85.17169544924043, 27.965313877551697], [85.17209889397716, 27.965499733972983], [85.1720928105657, 27.965860643180886], [85.1724962580326, 27.966046498550817], [85.17249321693197, 27.966226953183046], [85.1722899719727, 27.966224252925816], [85.17228084748858, 27.966765616730957], [85.17248409346112, 27.96676831704951], [85.17248105224787, 27.96694877166158], [85.17268429858635, 27.966951471700614], [85.1726812576827, 27.96713192632808], [85.1728845043871, 27.967134626087585], [85.17288146379308, 27.967315080730454], [85.17308471086339, 27.96731778021043], [85.17328187804048, 27.967681388742783], [85.17348512584266, 27.967684087663674], [85.17348816547965, 27.967503632969596], [85.17450440322372, 27.967517122972414], [85.17450744114367, 27.9673366681712], [85.17430419387638, 27.967333970790985], [85.1745135168992, 27.96697575855364], [85.17431027030744, 27.966973061214258], [85.17431330848079, 27.966792606418338], [85.17411006225493, 27.966789908799417], [85.17391289367056, 27.96642630135525], [85.17431938474307, 27.966431696811377], [85.174316346626, 27.96661215161738], [85.17492608445903, 27.966620242613146], [85.17512325684321, 27.966983848772], [85.17532650354745, 27.96698654491153], [85.17532954003195, 27.966806090013545], [85.17553278642653, 27.96680878583271], [85.17552975027981, 27.966989240751097], [85.17593624382886, 27.966994631530337], [85.17593320832957, 27.967175086484488], [85.17613645548403, 27.96717778144456], [85.1761334202944, 27.967358236414068], [85.17633666781474, 27.96736093109458], [85.17653384625078, 27.967724535480595], [85.17694034278307, 27.967729923423324], [85.17693730886029, 27.967910378459294], [85.17734077290523, 27.9680962203146], [85.1773316729109, 27.968637585499472], [85.17753492296431, 27.96864027852284], [85.17753188991449, 27.96882073359477], [85.1779383907812, 27.968826118782317], [85.1779353583789, 27.96900657388997], [85.17813860919219, 27.969009266054137], [85.17813557709964, 27.96918972117713], [85.1783388282788, 27.96919241306168], [85.17833579649599, 27.969372868200015], [85.17853904804103, 27.969375559804945], [85.17853601656796, 27.969556014958606], [85.17893948959238, 27.969741852498576], [85.17894555121529, 27.96938094211482], [85.17914880284451, 27.969383632819767], [85.17915183327607, 27.969203177599965], [85.17935508459553, 27.969205867984556], [85.17935811466121, 27.969025412739356], [85.17976764607069, 27.968850337276884], [85.17957045468621, 27.968486736976693], [85.17896070478149, 27.968478666067277], [85.17896676601156, 27.968117755612997], [85.17917001527614, 27.968120446175387], [85.1791730455113, 27.967939990920335], [85.17958257298058, 27.96776491580364], [85.17958560248404, 27.967584460497797], [85.17938235417671, 27.967581770596436], [85.1793853839899, 27.967401315305906], [85.17958863195945, 27.9674040051869], [85.17959469082612, 27.967043094550007], [85.17939144353214, 27.967040404709728], [85.17939447326118, 27.96685994940409], [85.17919122633303, 27.966857259284204], [85.17919425637179, 27.966676803993888], [85.17899100980945, 27.966674113594408], [85.1787938246196, 27.96631051238068], [85.17838430165259, 27.96648558538231], [85.1783873329863, 27.96630513016338], [85.17818408721175, 27.966302438604803], [85.17818711885515, 27.966121983401216], [85.17778366035662, 27.965936144257068], [85.17778972485411, 27.96557523390621], [85.17758648051479, 27.96557254152928], [85.17758951305917, 27.96539208636668], [85.17718302514028, 27.965386700753747], [85.17718909149575, 27.965025790494956], [85.17698584825392, 27.965023097279342], [85.17678867263426, 27.964659493566405], [85.17617894518797, 27.964651411342487], [85.17618197995608, 27.964470956297408], [85.17597873786791, 27.964468261643294], [85.17598177294565, 27.96428780661358], [85.17557528952906, 27.964282416446363], [85.17557832525415, 27.96410196145241], [85.17516880622492, 27.96427702507943], [85.1749716380634, 27.96391341907556], [85.17456211889328, 27.964088480887654], [85.17456515627883, 27.963908025990705], [85.17436191542873, 27.963905328998393], [85.1741647506444, 27.96354172197881], [85.17375827043571, 27.963536326576243], [85.17376130908775, 27.963355871745854], [85.17335179033955, 27.963530929974002], [85.17335482966702, 27.963350475184466], [85.17315158999885, 27.963347776453897], [85.17315462963589, 27.96316732167975], [85.17295139033358, 27.963164622669698], [85.17275423159984, 27.962801013878046], [85.17214451597249, 27.962792914271297], [85.17214755721356, 27.962612459584207], [85.17174412283313, 27.962426603736485], [85.17175629010465, 27.961704785081125], [85.17155305370098, 27.96170208413525], [85.17155913784309, 27.961341174818237], [85.17135590214292, 27.96133847361337], [85.17135894450941, 27.961158018967748], [85.17115570917508, 27.961155317483442], [85.17116179449884, 27.960794408217986], [85.17095855986803, 27.960791706474694], [85.17116787970994, 27.96043349893238], [85.17096464575444, 27.960430797229993], [85.1707674982761, 27.96006718600378], [85.17036103185657, 27.960061781181455], [85.1703640757141, 27.959881326602833], [85.17016084288427, 27.95987862376232], [85.1701730193831, 27.959156805479314], [85.16956332511438, 27.959148695404142], [85.1695663701815, 27.95896824088219], [85.16936313915262, 27.958965536944543], [85.16936618452917, 27.958785082438034], [85.16896276925488, 27.9585992192335], [85.16897495306725, 27.957877401300642], [85.16877172414868, 27.95787469658629], [85.16877781656086, 27.957513787630578], [85.16857458834572, 27.957511082657337], [85.16837745380853, 27.957147468490305], [85.1677677714426, 27.957139350994932], [85.16777081923793, 27.95695889660185], [85.16756759217665, 27.956956190190887], [85.16757064028135, 27.95677573581326], [85.1673674135859, 27.956773029122946], [85.16717028439376, 27.956409413444412], [85.16676383249433, 27.95640399864664], [85.16656670597462, 27.956040382212436], [85.16615720524008, 27.95621541995203], [85.16616025559493, 27.95603496569773], [85.16555058023728, 27.956026838677026], [85.16555363157659, 27.95584638447922], [85.16474378550694, 27.955655090215437], [85.16474989074484, 27.955294181958767], [85.16454666714544, 27.95529147123504], [85.16454972005954, 27.955111017119666], [85.16414632718165, 27.95492514073449], [85.16415243421872, 27.954564232560646], [85.16394921205438, 27.954561521019617], [85.16395837341054, 27.954020158782633], [85.16355498559585, 27.953834280876368], [85.16355803997146, 27.953653826823317], [85.16376126039157, 27.95365653886128], [85.16376431440138, 27.95347608478265], [85.16356109431881, 27.953473372765227], [85.16357025719113, 27.952932010560723], [85.16377347626111, 27.952934722516545], [85.1637765301578, 27.952754268417763], [85.16357331142534, 27.952751556482472], [85.1635794198089, 27.95239064831085], [85.16378263786633, 27.952393360205075], [85.16378569167819, 27.952212906091173], [85.16358247395826, 27.952210194217482], [85.16358552807932, 27.952029740119073], [85.16378874546176, 27.952032451972233], [85.16380401395543, 27.951130181301917], [85.16360079826048, 27.951127469551423], [85.16360385221186, 27.95094701542277], [85.16380706756932, 27.950949727152732], [85.16381317471229, 27.950588818839243], [85.1636099600298, 27.95058610715035], [85.16361301389634, 27.950405653006577], [85.16381622824136, 27.950408364674942], [85.16382538865889, 27.949867002151795], [85.16342201611285, 27.94968112449513], [85.16342812420977, 27.949320216193215], [85.16363133650172, 27.949322928038118], [85.1636343901703, 27.949142473859073], [85.16343117821582, 27.9491397620347], [85.16344339395717, 27.948417945350247], [85.16364660456185, 27.948420657092477], [85.16385592154606, 27.948062460080386], [85.16365271158796, 27.94805974867894], [85.16366187191504, 27.947518386020842], [85.16325850816892, 27.947332508253634], [85.16326461620537, 27.94697159986177], [85.1628612551869, 27.94678572104491], [85.16287347350654, 27.94606390434485], [85.16267026740145, 27.946061191670783], [85.16267332224804, 27.94588073750372], [85.16247011650864, 27.945878024550506], [85.16247622679172, 27.94551711624234], [85.16227302175541, 27.945514403030533], [85.1622760771919, 27.94533394888943], [85.16247928189084, 27.94533666208069], [85.16248539200417, 27.944975753742277], [85.16228218798001, 27.944973040592114], [85.16228524333161, 27.9447925864359], [85.16208203967312, 27.944789873006606], [85.16208815096621, 27.944428964720135], [85.16188494801078, 27.94442625103227], [85.1618971716068, 27.94370443448108], [85.16169397002912, 27.943701720575753], [85.16170008233203, 27.94334081231102], [85.16149688145737, 27.94333809814714], [85.16150299432176, 27.942977189903363], [85.16170619452171, 27.942979904026135], [85.16170925057412, 27.942799449876134], [85.1615060507115, 27.94279673577392], [85.16151216340606, 27.942435827499903], [85.16130896424643, 27.942433113139156], [85.16111799286318, 27.941708582034718], [85.16071465492499, 27.941522697897003], [85.16072382737774, 27.940981335619313], [85.16052063102995, 27.940978620224506], [85.16052674653149, 27.940617712055303], [85.16032355088663, 27.940614996402005], [85.16032966694948, 27.940254088253788], [85.16012647200755, 27.940251372342008], [85.16033578289904, 27.93989318008541], [85.1601325886317, 27.939890464214763], [85.15994162865023, 27.93916593181184], [85.15973843578867, 27.93916321542427], [85.15974149461952, 27.938982761374078], [85.15953830212356, 27.938980044707478], [85.15934122858174, 27.938616419708083], [85.159138036817, 27.938613702483444], [85.15913497703102, 27.938794156481983], [85.15893178495733, 27.93879143893717], [85.15893484508061, 27.93861098495921], [85.15852846169284, 27.93860554901195], [85.1585315224623, 27.93842509507013], [85.1583283311482, 27.938422376667702], [85.15833139222657, 27.938241922741426], [85.15812820127809, 27.93823920405999], [85.15813126266536, 27.938058750149267], [85.15792807208251, 27.93805603118884], [85.1577310055665, 27.937692404174637], [85.15732462589159, 27.93768696483823], [85.15732768854281, 27.937506510994776], [85.15712449908514, 27.937503790897804], [85.15712756204525, 27.937323337069913], [85.15733075116566, 27.93732605714628], [85.15733381376015, 27.93714560329274], [85.15713062497697, 27.93714288323697], [85.15713981360194, 27.93660152170794], [85.1573430013734, 27.936604241701897], [85.15734606385445, 27.936423787828193], [85.15714287642021, 27.936421067854837], [85.1571490019716, 27.93606016013353], [85.1573521887314, 27.936062880065688], [85.15735525112733, 27.935882426176864], [85.15715206470476, 27.935879706265315], [85.15716125273401, 27.935338344630427], [85.15695806735147, 27.935335624481123], [85.15696419323689, 27.93497471674054], [85.15676100855711, 27.9349719963329], [85.15676407179448, 27.93479154247565], [85.15696725613704, 27.934794262862695], [85.15697031900882, 27.9346138089798], [85.15676713500346, 27.934611088613373], [85.15677632446017, 27.934069726996267], [85.15636995855772, 27.93406428548844], [85.15637302232759, 27.933883831647208], [85.15596359276879, 27.934058842782456], [85.15597278601633, 27.93351748136733], [85.15556948739747, 27.93333158381303], [85.15557561737918, 27.932970676250136], [85.15537243660712, 27.932967953972494], [85.15537550189256, 27.932787500204114], [85.15517232148606, 27.932784777647576], [85.15517538708028, 27.932604323894772], [85.15477209326693, 27.932418424207796], [85.15477822566199, 27.932057516759496], [85.15457504668933, 27.932054793386918], [85.1545781131814, 27.931874339675844], [85.15437493457429, 27.931871616024385], [85.15437800137511, 27.931691162328896], [85.15417482313354, 27.931688438398567], [85.1539777797854, 27.931324806845176], [85.15377460227492, 27.93132208235711], [85.15377153451949, 27.931502536000764], [85.15336517890954, 27.931497086084846], [85.15336211045141, 27.93167753968218], [85.15254939822402, 27.931666636173713], [85.15234007986525, 27.932024816520872], [85.15193372263045, 27.932019362287964], [85.151930651727, 27.9321998157256], [85.15172747281511, 27.932197088139226], [85.15171825892259, 27.93273844835991], [85.15090861218826, 27.932547081452093], [85.15091475745206, 27.932186174798606], [85.15132418699157, 27.93201117869229], [85.15132725887803, 27.9318307253116], [85.15112408072578, 27.931827996868034], [85.15113329722585, 27.93128663675772], [85.15093012011349, 27.93128390807665], [85.15093319256039, 27.931103454717135], [85.1505268390953, 27.93109799649785], [85.15052991218803, 27.93091754317464], [85.1501204857441, 27.931092537080584], [85.15012663324957, 27.93073163051184], [85.14992345729092, 27.930728900395316], [85.15013278064116, 27.930370723922916], [85.14992960535675, 27.930367993847767], [85.14993575330868, 27.930007087280053], [85.149732578727, 27.930004356946785], [85.14973872723925, 27.92964345040026], [85.14953555336025, 27.92964071980888], [85.14974487563761, 27.929282543833583], [85.14934160408714, 27.929096629184563], [85.14934775366302, 27.928735722670368], [85.14975409802157, 27.92874118394574], [85.14975717209262, 27.92856073063971], [85.15016658925929, 27.928385737323406], [85.15017580919364, 27.927844377235843], [85.15037897978716, 27.927847106722], [85.15038205270461, 27.927666653328718], [85.15058522298952, 27.92766938249474], [85.15058829554144, 27.927488929075746], [85.15099770737179, 27.927313933002704], [85.15100077919266, 27.927133479532277], [85.15079760986204, 27.92713075102717], [85.15080375409251, 27.92676984411254], [85.1512131628324, 27.9265948472344], [85.15101613787014, 27.92623121210452], [85.15142554422223, 27.9260562144677], [85.15145011100651, 27.92461258595015], [85.15165327570391, 27.92461531326762], [85.15165634608691, 27.924434859659577], [85.15145318172654, 27.924432132362778], [85.15145932308127, 27.924071225172895], [85.1516624867676, 27.924073952428373], [85.15166862733454, 27.923713045177013], [85.15146546432221, 27.923710317962865], [85.1514838873624, 27.922627596211772], [85.15108063654814, 27.922441687531773], [85.15108677862501, 27.922080780313674], [85.15068045886532, 27.92207532416163], [85.15048344301309, 27.921711688522297], [85.14987396569418, 27.921703501274788], [85.14987703865486, 27.92152304777214], [85.14947072125854, 27.921517588151612], [85.14947379486468, 27.921337134685302], [85.14927063654618, 27.92133440444666], [85.14927678434694, 27.920973497540285], [85.14866731158409, 27.920965305152283], [85.14867038645261, 27.920784851753606], [85.1482640720937, 27.92077938870616], [85.14826099655126, 27.92095984206344], [85.14805783907758, 27.920957110069963], [85.14786083403659, 27.920593471140332], [85.14704820723647, 27.92058253914097], [85.14705128474361, 27.920402085897845], [85.1466449721885, 27.920396618143428], [85.14664189400747, 27.920577071345114], [85.14643873743573, 27.92057433699815], [85.14644181595371, 27.920393883817177], [85.14562919129976, 27.92038294351858], [85.14563227113699, 27.920202490415463], [85.14522595965505, 27.92019701851148], [85.14522287914396, 27.920377471573136], [85.14501972310887, 27.920374735151366], [85.1450228039569, 27.92019428211045], [85.14421018144974, 27.920183333512778], [85.14421326361698, 27.920002880549774], [85.14380695320857, 27.9199974044963], [85.14381003602112, 27.91981695156975], [85.14360688119669, 27.919814213114737], [85.14340989328798, 27.91945056857515], [85.14300358512963, 27.919445090251394], [85.14300666920421, 27.91926463739273], [85.14280351550482, 27.919261897802592], [85.14280659988775, 27.919081444959648], [85.14260344655385, 27.919078705090925], [85.14260653124512, 27.918898252263702], [85.14240337827671, 27.918895512116407], [85.14240646327632, 27.91871505930489], [85.14220331067341, 27.91871231887902], [85.14220639598133, 27.918531866083242], [85.14200324374393, 27.918529125378804], [85.14200632936019, 27.918348672598746], [85.14180317748824, 27.91834593161575], [85.14180626341283, 27.91816547885142], [85.14160311190639, 27.918162737589864], [85.14160619813929, 27.91798228484126], [85.14140304699833, 27.917979543301147], [85.14140613353953, 27.917799090568277], [85.14120298276406, 27.91779634874962], [85.14100600636138, 27.917432701233874], [85.14059970630102, 27.917427216183068], [85.14060279410398, 27.91724676351819], [85.1403996444536, 27.917244020564592], [85.14040273256484, 27.917063567915456], [85.14019958327995, 27.91706082468333], [85.14020267169946, 27.916880372049942], [85.13999952278004, 27.916877628539293], [85.13980255198993, 27.916513979530578], [85.13939625564171, 27.91650849109591], [85.13939934532287, 27.916328038530565], [85.13919619752856, 27.91632529388507], [85.13919310751054, 27.916505746429625], [85.13898995940798, 27.916503001464022], [85.13899304976287, 27.91632254894028], [85.13818045898647, 27.91631156616806], [85.1381835506602, 27.916131113722493], [85.13757410888921, 27.91612287356309], [85.13757720154487, 27.91594242117492], [85.13717090784786, 27.915936926280455], [85.13717400114861, 27.915756473928884], [85.13656456182858, 27.91574822940494], [85.13656765611123, 27.9155677771108], [85.13575507209997, 27.915556780305412], [85.13575816770134, 27.915376328089565], [85.13535497278787, 27.915190375753586], [85.13536116519458, 27.91482947138004], [85.13515802066821, 27.914826720915244], [85.13516111716538, 27.914646268741752], [85.13536426135492, 27.914649019185696], [85.13536735748657, 27.9144685669863], [85.13577674070734, 27.914293614688557], [85.13577983610799, 27.914113162437395], [85.13557669287155, 27.91411041265453], [85.13558288426044, 27.913749508178764], [85.13599226439243, 27.91357455507473], [85.13579531268097, 27.913210901105934], [85.13640473750998, 27.913219148346368], [85.13640783172812, 27.91303869600245], [85.1366109730583, 27.91304144446324], [85.13641402007839, 27.91267779129946], [85.13661716073497, 27.91268053971858], [85.13662025453031, 27.912500087338692], [85.13702653525587, 27.91250558323753], [85.13703272141338, 27.91214467837932], [85.13723586114554, 27.91214742583821], [85.13723895384453, 27.91196697338071], [85.13744209326855, 27.911969720519537], [85.13744518560209, 27.911789268036177], [85.13785455549382, 27.911614308844406], [85.13807005922193, 27.91089524479002], [85.13827319673983, 27.910897990606994], [85.13827628755439, 27.910717538010115], [85.13868565211497, 27.91054257606118], [85.13848869602575, 27.91017892562371], [85.13869183225385, 27.910181670758984], [85.13869492228035, 27.910001218100316], [85.1391042834733, 27.909826254726266], [85.13911355127465, 27.90928489658007], [85.13931668590486, 27.909287640713664], [85.13932286362248, 27.908926735216053], [85.13952599760785, 27.908929479008847], [85.13932904122565, 27.908565829698276], [85.13953217453754, 27.90856857344947], [85.13954761636099, 27.907666309462794], [85.13975074801786, 27.907669052810814], [85.13976001175843, 27.907127694295912], [85.14036940387027, 27.90713592235771], [85.14037249071644, 27.906955469446956], [85.14057562114088, 27.906958211515065], [85.14058179407402, 27.90659730563687], [85.14099113941217, 27.906422335804166], [85.14100965331346, 27.90533961776895], [85.14080652586208, 27.905336876486235], [85.1408096117489, 27.905156423483497], [85.14101273886364, 27.905159164745434], [85.14103125156419, 27.90407644649847], [85.14082812646947, 27.90407370536121], [85.14083121215616, 27.903893252323176], [85.14123746170087, 27.903898734256995], [85.14124054668568, 27.903718281172374], [85.14103742223567, 27.903715540375806], [85.14104050752853, 27.90353508730692], [85.14124363164187, 27.903537828082705], [85.141252886339, 27.902996468783456], [85.14044039409686, 27.902985504134808], [85.14044656644509, 27.902624598076343], [85.14085589662042, 27.902449627837452], [85.1408589820498, 27.90226917475405], [85.14065586035008, 27.902266433525433], [85.1408651528228, 27.901908268572118], [85.14045891079844, 27.9019027858989], [85.1404619968153, 27.901722332841935], [85.14025887618263, 27.901719591077423], [85.14006192887292, 27.901355942967882], [85.13924944943557, 27.901344971888488], [85.13924636145624, 27.901525424830794], [85.13944948160928, 27.901528168070115], [85.13944330623801, 27.90188907398119], [85.1396464270929, 27.90189181696298], [85.13964333970097, 27.902072269931754], [85.1400464954225, 27.902258208044852], [85.1400434086466, 27.90243866104511], [85.13984028672465, 27.902435918599206], [85.13983411241381, 27.902796824543035], [85.13963098984719, 27.90279408175642], [85.13962481474864, 27.9031549876385], [85.14002797433814, 27.90334092597083], [85.14002488739064, 27.903521378940844], [85.13982176344885, 27.9035186363702], [85.13981250142479, 27.904059995187634], [85.14001562637651, 27.904062737820645], [85.14000327795723, 27.904784549589795], [85.1395939375394, 27.904959516746388], [85.13979088903403, 27.905323165585166], [85.13958776175424, 27.905320422507454], [85.13958467381873, 27.90550087538043], [85.13938154623087, 27.905498131982753], [85.13937845793008, 27.90567858482989], [85.13896911316405, 27.905853549895948], [85.13896293507263, 27.906214455481805], [85.13875980622387, 27.90621171110342], [85.13895675686672, 27.9065753610475], [85.13875362734457, 27.906572616627514], [85.13872891068237, 27.90801623852216], [85.13831955595154, 27.908191201124275], [85.13830101303999, 27.90927391705353], [85.1380978785529, 27.909271171423853], [85.1380886057003, 27.909812529257962], [85.13767924310991, 27.90998748953576], [85.13767305966068, 27.91034839463994], [85.13726678684596, 27.91034290103628], [85.13726369440485, 27.91052335353917], [85.1370605577037, 27.91052060626767], [85.13704818630566, 27.911242416145516], [85.13664191029515, 27.91123692053823], [85.13663881670045, 27.91141737295343], [85.13643567840141, 27.91141462468011], [85.13642949045244, 27.911775529453706], [85.1362263515085, 27.911772780839478], [85.13622325715423, 27.911953233197888], [85.13602011790216, 27.911950484263578], [85.13601702318243, 27.912130936596107], [85.13560764866875, 27.912305890073895], [85.13560145773874, 27.912666794630375], [85.13539831722552, 27.912664044714962], [85.1353952213807, 27.9128444969648], [85.13498584321958, 27.913019448397627], [85.13497965003928, 27.913380352788696], [85.13457026921236, 27.91355530284257], [85.13435473629704, 27.914274359777842], [85.13394535112015, 27.91444930773978], [85.13393295698997, 27.91517111592325], [85.13433614914383, 27.915357072303316], [85.13412680712936, 27.91571522437264], [85.13453309929233, 27.915720728204292], [85.13453000161248, 27.915901180284976], [85.13473314807386, 27.915903931772714], [85.13473005070216, 27.916084383869205], [85.1349331975291, 27.9160871350785], [85.13493010046557, 27.916267587190795], [85.13513324765806, 27.916270338121628], [85.13533020201358, 27.916633993046002], [85.13573649788947, 27.916639493494547], [85.13573340208734, 27.916819945675076], [85.13634284712688, 27.91682819416559], [85.13633975230671, 27.91700864640359], [85.13654290104745, 27.917011395322643], [85.136739861438, 27.91737504848655], [85.13734930993948, 27.91738329267487], [85.13734621671772, 27.917563745001864], [85.13775251653576, 27.91756923967246], [85.13774633135381, 27.917930144394585], [85.13794948197959, 27.917932891322536], [85.13794329735684, 27.918293796066116], [85.13814644868506, 27.91829654273637], [85.13814335666763, 27.91847699512141], [85.13855275142744, 27.9183020351789], [85.13855893402881, 27.91794113031046], [85.13876208476916, 27.91794387604111], [85.13876517568998, 27.91776342357852], [85.13896832612208, 27.917766168989054], [85.13896523553814, 27.91794662147245], [85.139371537162, 27.917952111437142], [85.13936844722323, 27.9181325639571], [85.1399779008844, 27.918140796721605], [85.1399748119277, 27.9183212492989], [85.14038420346826, 27.918146283734632], [85.14038111518536, 27.91832673635351], [85.14058426685712, 27.918329479431822], [85.14058117888251, 27.918509932066435], [85.14078433091977, 27.918512674866207], [85.14078124325347, 27.918693127516562], [85.14098439565625, 27.918695870037773], [85.14098130829827, 27.918876322703877], [85.14118446106654, 27.918879064946537], [85.14118137401687, 27.91905951762837], [85.14138452715066, 27.91906225959247], [85.1413814404093, 27.919242712290032], [85.14178466134041, 27.91942864809584], [85.14177848906242, 27.919789553548856], [85.14218479822554, 27.919795035547825], [85.14218171271752, 27.919975488308317], [85.14238486767889, 27.919978228879543], [85.14238178247922, 27.92015868165575], [85.14278500860719, 27.920344614754377], [85.14277883941273, 27.920705520364617], [85.14318823616865, 27.920530546733566], [85.14318515223103, 27.92071099957769], [85.14338830868303, 27.920713738735174], [85.14338522505378, 27.920894191595014], [85.14379153871738, 27.92089966905341], [85.14378845573346, 27.92108012194971], [85.14399161294504, 27.921082860250614], [85.14399469559201, 27.920902407333568], [85.14440100942697, 27.920907882995785], [85.1443979274539, 27.92108833595432], [85.14480424207696, 27.921093810460555], [85.14480732337611, 27.92091335746054], [85.14501048039351, 27.92091609424388], [85.14500739943131, 27.921096547264625], [85.14521055681419, 27.92109928376933], [85.14520439547807, 27.921460189837173], [85.14601702799064, 27.921471133028135], [85.14601394862763, 27.92165158613742], [85.14763921771751, 27.92167345831518], [85.1476361410217, 27.921853911585146], [85.14783930012321, 27.921856644280886], [85.14784237648205, 27.921676190990215], [85.14824869409658, 27.921681655442146], [85.1482425426983, 27.92204256210125], [85.14844570222226, 27.922045293919542], [85.14844877759866, 27.921864840571818], [85.1488550960581, 27.921870303268882], [85.14884894662467, 27.922231210042085], [85.14925526654592, 27.922236671624393], [85.14925219246042, 27.922417125044813], [85.14945535280076, 27.92241985540758], [85.14945227902378, 27.922600308843645], [85.14965543972956, 27.922603038927708], [85.14985245417238, 27.922966675652145], [85.15005561560906, 27.92296940517879], [85.15005868843203, 27.922788951690748], [85.15046193856784, 27.92297486333391], [85.15045579418451, 27.923335770377566], [85.15065895638058, 27.92333849904739], [85.15063438040491, 27.924782127185797], [85.15043121551275, 27.924779398350584], [85.15041585291793, 27.925681665669888], [85.15021268636909, 27.92567893643187], [85.15040970768077, 27.92604257256232], [85.15020654045784, 27.926039843282947], [85.15020346745953, 27.92622029670092], [85.14979405872411, 27.92639529057408], [85.14978483745062, 27.92693665065855], [85.14958166862786, 27.92693392037745], [85.14957552029571, 27.927294827033858], [85.14916610650444, 27.927469818769836], [85.14915995665315, 27.927830725313235], [85.14875361583631, 27.927825262448003], [85.14875054019379, 27.92800571567075], [85.14854736949103, 27.928002983768263], [85.14854121744636, 27.92836389015724], [85.14813179803876, 27.92853887851661], [85.14811641391503, 27.9294411441686], [85.14791324060104, 27.929438411202106], [85.1479163178199, 27.9292579581025], [85.14750997195164, 27.929252491312514], [85.1475068940586, 27.929432944370706], [85.14730372083014, 27.929430210505792], [85.14729756428433, 27.92979111656563], [85.14709439041017, 27.929788382359817]], [[85.1707614118271, 27.96042809522773], [85.17055817792794, 27.960425392925586], [85.17056122150419, 27.960244938336594], [85.17076445506568, 27.960247640618274], [85.1707614118271, 27.96042809522773]], [[85.13872582097078, 27.9081966912363], [85.13872273123056, 27.90837714394539], [85.1385195983699, 27.908374399018175], [85.13852268844684, 27.908193946329884], [85.13872582097078, 27.9081966912363]], [[85.13654599553075, 27.916830943063818], [85.13674914396329, 27.91683369166273], [85.13674604981685, 27.91701414394239], [85.13654290104745, 27.917011395322643], [85.13654599553075, 27.916830943063818]], [[85.14895371092504, 27.928008447273786], [85.1489506355911, 27.928188900512186], [85.14874746452277, 27.92818616888846], [85.14875054019379, 27.92800571567075], [85.14895371092504, 27.928008447273786]], [[85.14831958725752, 27.929443876835617], [85.14831343408274, 27.929804783102515], [85.14851660812792, 27.929807515511463], [85.14850737916336, 27.930348874936087], [85.14810410610305, 27.930162956599425], [85.14811641391503, 27.9294411441686], [85.14831958725752, 27.929443876835617]]], [[[85.17852692198039, 27.97009738038936], [85.17852389039506, 27.970277835522875], [85.17872714365728, 27.970280526929663], [85.17873017490479, 27.970100071775775], [85.17852692198039, 27.97009738038936]]], [[[85.17832063716091, 27.97027514381608], [85.17831760520968, 27.97045559892418], [85.17852085878167, 27.970458290651344], [85.17852389039506, 27.970277835522875], [85.17832063716091, 27.97027514381608]]], [[[85.17831457323038, 27.970636054027246], [85.17831760520968, 27.97045559892418], [85.17811435166577, 27.970452906897012], [85.17811131934863, 27.9706333619797], [85.17831457323038, 27.970636054027246]]], [[[85.17790806549495, 27.970630669632147], [85.1779050328119, 27.970811124689426], [85.17810828700343, 27.97081381705736], [85.17811131934863, 27.9706333619797], [85.17790806549495, 27.970630669632147]]], [[[85.17830244503247, 27.97135787438913], [85.1782994129128, 27.971538329467005], [85.17850266851187, 27.971541021316405], [85.17850570029367, 27.971360566218156], [85.17830244503247, 27.97135787438913]]], [[[85.17890614866, 27.971726859249078], [85.17890311749778, 27.971907314377987], [85.17930963024376, 27.971912696058077], [85.17911243547742, 27.971549095064454], [85.17870592413898, 27.971543712865778], [85.17870289266696, 27.971724167979357], [85.17890614866, 27.971726859249078]]], [[[85.17969796364814, 27.973000807694444], [85.17990122214655, 27.973003497606534], [85.17990425178776, 27.97282304240604], [85.17970099362725, 27.972820352514304], [85.17969796364814, 27.973000807694444]]], [[[85.1795979585994, 27.978955825812815], [85.17980122824954, 27.978958516396716], [85.17980425881647, 27.97877806136247], [85.17960098950432, 27.978775370798918], [85.1795979585994, 27.978955825812815]]], [[[85.17959189670538, 27.97931673582547], [85.1795979585994, 27.978955825812815], [85.17939468897733, 27.978953134928787], [85.17918535613735, 27.979311353675854], [85.17959189670538, 27.97931673582547]]], [[[85.17918232447227, 27.979491808633902], [85.17917929277911, 27.979672263586917], [85.17938256372508, 27.979674954852516], [85.17938559508023, 27.979494499879138], [85.17918232447227, 27.979491808633902]]], [[[85.17815080465707, 27.980380622111312], [85.17814473758193, 27.9807415317582], [85.17834801041556, 27.98074422464667], [85.17835407681467, 27.98038331495903], [85.17815080465707, 27.980380622111312]]], [[[85.17793236293903, 27.98128020294099], [85.17792629490704, 27.98164111249674], [85.17812956940269, 27.98164380578724], [85.17813563675864, 27.981282896190734], [85.17793236293903, 27.98128020294099]]], [[[85.17772302043947, 27.981638418906087], [85.17771998604331, 27.981818873656014], [85.1779232608489, 27.981821567267048], [85.17792629490704, 27.98164111249674], [85.17772302043947, 27.981638418906087]]], [[[85.17284139914334, 27.98175413694642], [85.17283835660636, 27.981934591201494], [85.17324490557172, 27.98193999257143], [85.17324794743263, 27.981759538275487], [85.17284139914334, 27.98175413694642]]], [[[85.17345122161953, 27.9817622384898], [85.17344818009663, 27.981942692806175], [85.17365145464971, 27.981945392740766], [85.17365449583457, 27.98176493840396], [85.17345122161953, 27.9817622384898]]], [[[85.17385472923092, 27.98194809237521], [85.17405800384032, 27.981950791709497], [85.17406104434912, 27.98177033733185], [85.17385777007776, 27.981767638017978], [85.17385472923092, 27.98194809237521]]], [[[85.17751367650354, 27.98199663446935], [85.17771695161908, 27.981999328400914], [85.17771998604331, 27.981818873656014], [85.17751671126582, 27.981816179744833], [85.17751367650354, 27.98199663446935]]], [[[85.17405800384032, 27.981950791709497], [85.17405496330336, 27.982131246082112], [85.17425823827891, 27.982133945136674], [85.17426127847783, 27.981953490743646], [85.17405800384032, 27.981950791709497]]], [[[85.17710712635674, 27.981991245705764], [85.17710409089031, 27.98217170038446], [85.17751064171316, 27.982177089188813], [85.17751367650354, 27.98199663446935], [85.17710712635674, 27.981991245705764]]], [[[85.17608771432498, 27.98215822312086], [85.17608467714024, 27.982338677692546], [85.17710105539577, 27.98235215505812], [85.17710409089031, 27.98217170038446], [85.17608771432498, 27.98215822312086]]], [[[85.17486806337442, 27.98214204049945], [85.17486502416148, 27.982322494948694], [85.17588140157346, 27.98233598131896], [85.17588443909624, 27.982155526767674], [85.17486806337442, 27.98214204049945]]], [[[85.17446151328261, 27.982136643891085], [85.17445847339359, 27.9823170982995], [85.17466174876347, 27.982319796774178], [85.17466478831444, 27.982139342345345], [85.17446151328261, 27.982136643891085]]], [[[85.17343601372353, 27.98266451002126], [85.17343297205987, 27.98284496431243], [85.17363624830313, 27.982847664349165], [85.17363928962875, 27.98266721003756], [85.17343601372353, 27.98266451002126]]], [[[85.17363320694933, 27.983028118655728], [85.17383648355882, 27.98303081841273], [85.17383952457453, 27.98285036408574], [85.17363624830313, 27.982847664349165], [85.17363320694933, 27.983028118655728]]], [[[85.17403671949059, 27.98321397221193], [85.17403976019642, 27.983033517869558], [85.17383648355882, 27.98303081841273], [85.17383344251492, 27.98321127273467], [85.17403671949059, 27.98321397221193]]], [[[85.17403671949059, 27.98321397221193], [85.1740336787566, 27.983394426549257], [85.17423695609848, 27.983397125746773], [85.17423999649439, 27.983216671389027], [85.17403671949059, 27.98321397221193]]], [[[85.17951914522219, 27.983647654405456], [85.17952824004153, 27.983106289741674], [85.1791216852766, 27.983100906736798], [85.17911562073954, 27.98346181643623], [85.17951914522219, 27.983647654405456]]], [[[85.17423695609848, 27.983397125746773], [85.1742339156744, 27.98357758009949], [85.17443719338246, 27.983580279017257], [85.17444023346849, 27.983399824644128], [85.17423695609848, 27.983397125746773]]], [[[85.17443719338246, 27.983580279017257], [85.17443415326832, 27.983760733385346], [85.17463743134259, 27.98376343202336], [85.17464047111868, 27.983582977634853], [85.17443719338246, 27.983580279017257]]], [[[85.1784966867156, 27.983995103883473], [85.17849972009658, 27.983814649112496], [85.17870299873304, 27.983817341747017], [85.17870603174788, 27.98363688695063], [85.17829947517919, 27.983631501422167], [85.17829340776916, 27.98399241092841], [85.1784966867156, 27.983995103883473]]], [[[85.1762636569495, 27.98378501032122], [85.17626061984978, 27.983965464867946], [85.17666717720884, 27.98397085648146], [85.17667021363242, 27.983790401893938], [85.1762636569495, 27.98378501032122]]], [[[85.17565382213596, 27.983776920710827], [85.17565078402205, 27.983957375196347], [85.17605734121241, 27.983962768610922], [85.1760603786502, 27.983782314084596], [85.17565382213596, 27.983776920710827]]], [[[85.174840709445, 27.9837661303612], [85.17483766997883, 27.983946584765082], [85.17524422694419, 27.983951980581068], [85.17524726573421, 27.983771526136366], [85.174840709445, 27.9837661303612]]], [[[85.17930980278216, 27.984005872701946], [85.17951308186896, 27.98400856415612], [85.1795161135596, 27.983828109283312], [85.17931283481087, 27.9838254178495], [85.17930980278216, 27.984005872701946]]], [[[85.17687045593054, 27.98397355183795], [85.1780901288508, 27.983989717673158], [85.17809316290791, 27.98380926294294], [85.17687349201606, 27.983793097230038], [85.17687045593054, 27.98397355183795]]], [[[85.17930070652761, 27.984547237229055], [85.17929464221757, 27.984908146888603], [85.17949792299478, 27.984910838444595], [85.17950398662866, 27.98454992874432], [85.17930070652761, 27.984547237229055]]], [[[85.18060487222783, 27.967417450092334], [85.18060184444134, 27.96759790550498], [85.18080509291693, 27.96760059360651], [85.18080812036563, 27.967420138173505], [85.18060487222783, 27.967417450092334]]], [[[85.18101136853146, 27.967422825954703], [85.18100834142054, 27.96760328140805], [85.18121158995217, 27.96760596890962], [85.1812146167253, 27.967425513435938], [85.18101136853146, 27.967422825954703]]], [[[85.18039859599381, 27.967595217103494], [85.18039556784149, 27.967775672490763], [85.18059881662683, 27.967778360912604], [85.18060184444134, 27.96759790550498], [85.18039859599381, 27.967595217103494]]], [[[85.18121158995217, 27.96760596890962], [85.181208563151, 27.96778642437827], [85.18141181204845, 27.967789111600208], [85.18141483851183, 27.967608656111217], [85.18121158995217, 27.96760596890962]]], [[[85.1801923190842, 27.967772983768945], [85.18018929056605, 27.96795343913083], [85.18039253966114, 27.967956127872995], [85.18039556784149, 27.967775672490763], [85.1801923190842, 27.967772983768945]]], [[[85.18140878555705, 27.96796956708416], [85.18161203482032, 27.967972254026453], [85.18161506097393, 27.967791798522168], [85.18141181204845, 27.967789111600208], [85.18140878555705, 27.96796956708416]]], [[[85.17998301261504, 27.96813120542518], [85.18018626201987, 27.968133894487675], [85.18018929056605, 27.96795343913083], [85.17998604149902, 27.96795075008869], [85.17998301261504, 27.96813120542518]]], [[[85.1816090086387, 27.968152709525707], [85.18181225826778, 27.968155396188358], [85.18181528411161, 27.967974940668775], [85.18161203482032, 27.967972254026453], [85.1816090086387, 27.968152709525707]]], [[[85.18201550792486, 27.96815808255103], [85.18201248239082, 27.968338538085913], [85.18221573241372, 27.968341224168938], [85.18221875760997, 27.96816076861372], [85.18201550792486, 27.96815808255103]]], [[[85.17997392579484, 27.968672571404433], [85.17997695476295, 27.968492116083052], [85.1801802048434, 27.96849480518626], [85.18018323344565, 27.968314349839485], [85.17977673398842, 27.9683089713738], [85.17977067540464, 27.968669881980894], [85.17997392579484, 27.968672571404433]]], [[[85.17990122214655, 27.973003497606534], [85.17989819247727, 27.973183952801985], [85.18010145134161, 27.9731866424344], [85.18010448067301, 27.973006187218584], [85.17990122214655, 27.973003497606534]]], [[[85.18009842198218, 27.973367097645166], [85.1800953925947, 27.973547552850906], [85.18029865216285, 27.97355024222398], [85.18030168121244, 27.973369786997882], [85.18009842198218, 27.973367097645166]]], [[[85.18029865216285, 27.97355024222398], [85.1802956230852, 27.973730697445024], [85.1804988830193, 27.973733386538388], [85.18050191175904, 27.97355293129699], [85.18029865216285, 27.97355024222398]]], [[[85.18029259397953, 27.973911152661035], [85.18028956484581, 27.974091607872015], [85.18049282545569, 27.974094297006086], [85.1804958542515, 27.973913841774756], [85.18029259397953, 27.973911152661035]]], [[[85.18089026223126, 27.974641040159906], [85.18089631861149, 27.974280129641045], [85.1804897966318, 27.974274752232375], [85.1804867677799, 27.974455207453627], [85.18089026223126, 27.974641040159906]]], [[[85.18088420573888, 27.975001950658616], [85.1810874681224, 27.975004638994236], [85.1810904960447, 27.97482418372706], [85.18088723399909, 27.974821495411778], [85.18088420573888, 27.975001950658616]]], [[[85.18107535615292, 27.975726460012584], [85.18087209241769, 27.97572377159558], [85.18066277120585, 27.97608199327607], [85.18106929999995, 27.976087370491527], [85.18107535615292, 27.975726460012584]]], [[[85.18065974241144, 27.976262448467295], [85.18065671358902, 27.97644290365349], [85.18085997864793, 27.976445592451956], [85.18086300713242, 27.976265137245413], [85.18065974241144, 27.976262448467295]]], [[[85.18045041936972, 27.97662066971574], [85.18044739015325, 27.97680112487151], [85.18065065586, 27.976803814010754], [85.18065368473853, 27.97662335883464], [85.18045041936972, 27.97662066971574]]], [[[85.18023503564305, 27.97733980080818], [85.18023200597645, 27.977520255923444], [85.18063854006554, 27.97752563466484], [85.18064156905623, 27.977345179508877], [85.18023503564305, 27.97733980080818]]], [[[85.18022897628181, 27.97770071103367], [85.18022594655912, 27.977881166138857], [85.18042921426557, 27.977883855700313], [85.1804322436503, 27.977703400574764], [85.18022897628181, 27.97770071103367]]], [[[85.18002267888072, 27.97787847627731], [85.18001964879201, 27.978058931357104], [85.18022291680838, 27.978061621239004], [85.18022594655912, 27.977881166138857], [85.18002267888072, 27.97787847627731]]], [[[85.18001055835761, 27.97860029656626], [85.18001358853046, 27.978419841501587], [85.18021685722276, 27.978422531424194], [85.1802198870296, 27.978242076334123], [85.17981335034898, 27.9782366962295], [85.17980728935537, 27.978597606323184], [85.18001055835761, 27.97860029656626]]], [[[85.18221019958604, 27.980795332501284], [85.18221927987601, 27.980253966802145], [85.18201600752344, 27.980251279677315], [85.18200995334878, 27.98061219010778], [85.18180668034823, 27.980609502642146], [85.18180365288086, 27.980789957829483], [85.18221019958604, 27.980795332501284]]], [[[85.18158826806847, 27.981509090661], [85.1817915427311, 27.98151177852846], [85.18179457031057, 27.981331323361278], [85.18159129598595, 27.981328635514156], [85.18158826806847, 27.981509090661]]], [[[85.18158221214935, 27.98187000093959], [85.18178548748806, 27.981872688847726], [85.1817885151236, 27.981692233690616], [85.18158524012293, 27.98168954580282], [85.18158221214935, 27.98187000093959]]], [[[85.18137893683868, 27.981867312731307], [85.18137590849905, 27.982047767842705], [85.18157918414776, 27.982050456071327], [85.18158221214935, 27.98187000093959], [85.18137893683868, 27.981867312731307]]], [[[85.18136985173568, 27.982408678050387], [85.18136076638038, 27.98295004332412], [85.18156404371932, 27.982952731654446], [85.18157312806048, 27.982411366319692], [85.18136985173568, 27.982408678050387]]], [[[85.18156101554952, 27.983133186755957], [85.18155798735171, 27.983313641852426], [85.1817612653948, 27.983316329923262], [85.18176429325456, 27.983135874806454], [85.18156101554952, 27.983133186755957]]], [[[85.18175520959119, 27.983677240141773], [85.18195848833844, 27.983679927953105], [85.18196151591619, 27.983499472826033], [85.181758237507, 27.983496785035033], [85.18175520959119, 27.983677240141773]]], [[[85.1794888273335, 27.98545220295721], [85.17969210915304, 27.98545489427409], [85.1796951407301, 27.98527443942123], [85.17949185924866, 27.98527174812471], [85.1794888273335, 27.98545220295721]]], [[[85.17948579539028, 27.98563265778467], [85.17948276341897, 27.98581311260709], [85.17988932843852, 27.985818495022095], [85.17989235973361, 27.985638040158957], [85.17948579539028, 27.98563265778467]]], [[[85.17968301425346, 27.985996258802437], [85.17967998256414, 27.98617671363514], [85.17988326576415, 27.986179404733264], [85.17988629711536, 27.985998949880198], [85.17968301425346, 27.985996258802437]]], [[[85.1796739191013, 27.98653762328544], [85.1796708873278, 27.986718078103024], [85.18007745578456, 27.986723460121212], [85.18008048688183, 27.98654300526291], [85.1796739191013, 27.98653762328544]]], [[[85.17986204551995, 27.987442588563624], [85.18006533111486, 27.98744527950404], [85.18007139350583, 27.98708436982271], [85.17986810858717, 27.98708167892301], [85.17986204551995, 27.987442588563624]]], [[[85.18024739985258, 27.988711154012677], [85.18045068787059, 27.98871384449512], [85.18045674930178, 27.988352934802915], [85.18005320599622, 27.98816709880625], [85.18004714326854, 27.98852800842712], [85.18025043092035, 27.988530699189447], [85.18024739985258, 27.988711154012677]]], [[[85.18065094549712, 27.988896989536226], [85.18064791504955, 27.98907744439008], [85.18085120379999, 27.989080134312754], [85.18085423390939, 27.98889967943854], [85.18065094549712, 27.988896989536226]]], [[[85.18242200732308, 27.968163454376427], [85.18241898246464, 27.968343909951976], [85.18262223254355, 27.968346595435026], [85.1826252570642, 27.968166139839163], [85.18242200732308, 27.968163454376427]]], [[[85.18343220994178, 27.968537790039502], [85.18343523313922, 27.96835733436739], [85.18302873278539, 27.968351965501174], [85.18303175663044, 27.968171509864668], [85.18282850683332, 27.9681688250019], [85.18282245843963, 27.96852973622925], [85.18343220994178, 27.968537790039502]]], [[[85.18424219046233, 27.96872898000168], [85.18424521233652, 27.968548524253354], [85.1838387110832, 27.968543157746403], [85.18384173360502, 27.968362702033666], [85.18363848335812, 27.968360018350523], [85.18363243761087, 27.96872092973034], [85.18424219046233, 27.96872898000168]]], [[[85.18464869250319, 27.968734345349286], [85.18464567127664, 27.968914801133177], [85.18484892267685, 27.968917483377304], [85.18485194356558, 27.96873702757311], [85.18464869250319, 27.968734345349286]]], [[[85.18424219046233, 27.96872898000168], [85.18423916856015, 27.96890943574496], [85.1844424199044, 27.96891211858907], [85.18444544146878, 27.968731662825476], [85.18424219046233, 27.96872898000168]]], [[[85.18524938505101, 27.969283758640042], [85.18504613291924, 27.969281076955316], [85.18505217410501, 27.968920165321432], [85.18484892267685, 27.968917483377304], [85.18483985984278, 27.969458850759683], [85.185246364754, 27.96946421446973], [85.18524938505101, 27.969283758640042]]], [[[85.1854465972644, 27.969647351719697], [85.18544961725156, 27.969466895874756], [85.185246364754, 27.96946421446973], [85.18524032407609, 27.969825126113992], [85.18564683045047, 27.969830488705217], [85.18564985012776, 27.969650032845017], [85.1854465972644, 27.969647351719697]]], [[[85.18564683045047, 27.969830488705217], [85.18564381074522, 27.970010944560382], [85.18584706431217, 27.970013625426276], [85.18585008367958, 27.969833169550824], [85.18564683045047, 27.969830488705217]]], [[[85.18665706081549, 27.970204801841348], [85.18666007885952, 27.970024345889787], [85.18625357152995, 27.970018986258047], [85.1862565902217, 27.969838530342017], [85.18605333693668, 27.969835850096423], [85.18604729884956, 27.970196761882878], [85.18665706081549, 27.970204801841348]]], [[[85.18643871447038, 27.971104401736067], [85.18643569592084, 27.971284857637134], [85.18663895196451, 27.971287537444976], [85.1866419701762, 27.97110708152362], [85.18643871447038, 27.971104401736067]]], [[[85.186023145383, 27.971640408827295], [85.1860201260739, 27.971820864672683], [85.18622338307523, 27.971823545141422], [85.18622640204649, 27.971643089275744], [85.186023145383, 27.971640408827295]]], [[[85.18601710673683, 27.972001320513048], [85.18601408737182, 27.972181776348368], [85.1862173450489, 27.97218445685768], [85.18622036407604, 27.972004001002073], [85.18601710673683, 27.972001320513048]]], [[[85.18621130691075, 27.972545368553792], [85.18641456529153, 27.972548048803638], [85.1864175840367, 27.972367592937818], [85.1862143259938, 27.972364912708255], [85.18621130691075, 27.972545368553792]]], [[[85.1864115465184, 27.972728504664428], [85.18702132284204, 27.972736543674564], [85.18701830505462, 27.97291699959116], [85.18742482341918, 27.97292235747159], [85.18743085761459, 27.972561445552273], [85.18641456529153, 27.972548048803638], [85.1864115465184, 27.972728504664428]]], [[[85.18413338435595, 27.975225383587485], [85.1849464372022, 27.97523611600642], [85.18494945873208, 27.97505566035817], [85.1841364072375, 27.975044928020456], [85.18413338435595, 27.975225383587485]]], [[[85.18494341564436, 27.975416571649628], [85.18514667926378, 27.97541925402448], [85.1851497004837, 27.975238798360973], [85.1849464372022, 27.97523611600642], [85.18494341564436, 27.975416571649628]]], [[[85.18392407469143, 27.97558361081091], [85.18412733850889, 27.975586294706442], [85.18413338435595, 27.975225383587485], [85.18393012121433, 27.975222699732576], [85.18392407469143, 27.97558361081091]]], [[[85.18514667926378, 27.97541925402448], [85.1851436580159, 27.975599709682964], [85.18575345005577, 27.975607755067944], [85.18555622713063, 27.975244162169858], [85.18514667926378, 27.97541925402448]]], [[[85.18595671412498, 27.975610436262787], [85.18595369420085, 27.975790891997402], [85.18615695863596, 27.975793572912455], [85.18615997822216, 27.97561311715755], [85.18595671412498, 27.975610436262787]]], [[[85.1837177872606, 27.975761382126603], [85.18371173989388, 27.976122293134093], [85.18391500469716, 27.976124977390636], [85.183921051388, 27.975764066342528], [85.1837177872606, 27.975761382126603]]], [[[85.18656046865175, 27.975979389632744], [85.18655443069132, 27.97634030119851], [85.18675769622409, 27.976342981274165], [85.1867546775399, 27.97652343706977], [85.18716120936517, 27.976528796361368], [85.18716422737347, 27.976348340525206], [85.18696096178482, 27.976345661049727], [85.18696398010313, 27.976165205228803], [85.18656046865175, 27.975979389632744]]], [[[85.18350242696405, 27.976480519524184], [85.18349940284479, 27.976660974989986], [85.18370266863388, 27.97666365960756], [85.1837056924152, 27.97648320412144], [85.18350242696405, 27.976480519524184]]], [[[85.1834963786975, 27.976841430450754], [85.18349940284479, 27.976660974989986], [85.18329613708367, 27.976658290072322], [85.18329311259845, 27.976838745512772], [85.1834963786975, 27.976841430450754]]], [[[85.18288053007814, 27.977194285521033], [85.18287750483299, 27.977374740905734], [85.1832840389748, 27.977380111803896], [85.18328706354403, 27.977199656378556], [85.18288053007814, 27.977194285521033]]], [[[85.18266213519165, 27.978093876413624], [85.18306867198116, 27.978099248074567], [85.18307169700034, 27.9779187926897], [85.18266516088678, 27.9779134210694], [85.18266213519165, 27.978093876413624]]], [[[85.18265608371735, 27.978454787086964], [85.18285935277405, 27.978457473108136], [85.18286237818722, 27.978277017753665], [85.1826591094685, 27.978274331752814], [85.18265608371735, 27.978454787086964]]], [[[85.18244071005202, 27.979173921970588], [85.18243768382281, 27.979354377259224], [85.18284422528805, 27.979359749804953], [85.18284725084126, 27.979179294475664], [85.18244071005202, 27.979173921970588]]], [[[85.18222533326255, 27.97989305631087], [85.18222230658328, 27.98007351155903], [85.18242557862587, 27.980076198363403], [85.18242860496713, 27.97989574309491], [85.18222533326255, 27.97989305631087]]], [[[85.18269896579126, 27.988021599686665], [85.18269593886535, 27.988202054769104], [85.18289922620535, 27.98820474158769], [85.18290225279311, 27.98802428648492], [85.18269896579126, 27.988021599686665]]], [[[85.18308132904177, 27.989470613826594], [85.18307830256805, 27.989651068909374], [85.18328159266935, 27.98965375529007], [85.18328461880489, 27.989473300186965], [85.18308132904177, 27.989470613826594]]], [[[85.18346975339166, 27.990558716912062], [85.1834637014328, 27.99091962709341], [85.18366699395739, 27.990922313015826], [85.18367304523987, 27.990561402793837], [85.18346975339166, 27.990558716912062]]], [[[85.18223789074433, 27.991264415170598], [85.18224091882297, 27.991083960214475], [85.18183736224469, 27.990898128904462], [85.18183130476267, 27.99125903874041], [85.18223789074433, 27.991264415170598]]], [[[85.18366396827413, 27.991102768119262], [85.1836609425629, 27.991283223217668], [85.18386423579187, 27.99128590888044], [85.18386726116493, 27.991105453761723], [85.18366396827413, 27.991102768119262]]], [[[85.18202551232079, 27.991803091882772], [85.18222880634025, 27.99180578000874], [85.18223183450297, 27.99162532506773], [85.18202854082172, 27.9916226369621], [85.18202551232079, 27.991803091882772]]], [[[85.18180707371319, 27.992702677882626], [85.18201036939568, 27.99270536641055], [85.18201339803676, 27.992524911515073], [85.1818101026925, 27.992522223007487], [85.18180707371319, 27.992702677882626]]], [[[85.18200734072656, 27.99288582130099], [85.1820043120294, 27.99306627618639], [85.18220760841639, 27.993068964454697], [85.18221063677531, 27.99288850954896], [85.18200734072656, 27.99288582130099]]], [[[85.18259906244172, 27.99397661474681], [85.18260511805889, 27.99361570489937], [85.18219852317142, 27.99361032914166], [85.18219549470037, 27.993790784027237], [85.18259906244172, 27.99397661474681]]], [[[85.18763109941715, 27.972744579984326], [85.18762808264337, 27.972925035961733], [85.18783134189549, 27.97292771415184], [85.18783435833139, 27.97274725815416], [85.18763109941715, 27.972744579984326]]], [[[85.18803761727354, 27.97274993602395], [85.18803460117553, 27.972930392041896], [85.18844111981937, 27.972935746921877], [85.18844413524161, 27.972755290863407], [85.18803761727354, 27.97274993602395]]], [[[85.18904486909359, 27.973304689214896], [85.1890508979945, 27.972943776991514], [85.18844111981937, 27.972935746921877], [85.1884381043692, 27.973116202975316], [85.18884462380049, 27.97312155669563], [85.18884160899819, 27.973302012784547], [85.18904486909359, 27.973304689214896]]], [[[85.18925114334343, 27.973126909215758], [85.1892481292169, 27.973307365345182], [85.18945138936812, 27.973310041175424], [85.18945440315676, 27.97312958502575], [85.18925114334343, 27.973126909215758]]], [[[85.18944837555159, 27.973490497320064], [85.18985489661353, 27.973495848120884], [85.19005213149694, 27.973859435466878], [85.19045865407783, 27.97386478454834], [85.19046166626067, 27.973684328312554], [85.19025840529417, 27.973681653942087], [85.19006116998918, 27.97331806686584], [85.18945138936812, 27.973310041175424], [85.18944837555159, 27.973490497320064]]], [[[85.1904556418671, 27.974045240779095], [85.1906589035373, 27.97404791488998], [85.1906619154101, 27.97386745863898], [85.19045865407783, 27.97386478454834], [85.1904556418671, 27.974045240779095]]], [[[85.19207270731951, 27.974607994412015], [85.19247923316118, 27.974613337654045], [85.19248224207642, 27.97443288123612], [85.1920757169106, 27.97442753803453], [85.19207270731951, 27.974607994412015]]], [[[85.1941083438538, 27.974454242039823], [85.19410533764189, 27.974634698619397], [85.19430860082724, 27.97463736738975], [85.19431160670125, 27.97445691078998], [85.1941083438538, 27.974454242039823]]], [[[85.1937018182424, 27.9744489036393], [85.19369580443907, 27.974809816712618], [85.19389906790668, 27.974812486103318], [85.19390508103419, 27.974451572989594], [85.1937018182424, 27.9744489036393]]], [[[85.19166317129452, 27.97478310630172], [85.1916691918562, 27.97442219363267], [85.1914659293708, 27.974419520981645], [85.19146291876599, 27.974599977298457], [85.191056393203, 27.974594631055744], [85.19105338189448, 27.974775087327075], [85.19166317129452, 27.97478310630172]]], [[[85.19308902213261, 27.97462135026657], [85.19308601420327, 27.9748018067401], [85.1934925409993, 27.974807147021853], [85.1934955482528, 27.97462669050791], [85.19308902213261, 27.97462135026657]]], [[[85.19247923316118, 27.974613337654045], [85.19247622421808, 27.974793794066933], [85.19288275084702, 27.974799136149116], [85.19288575911429, 27.974618679695794], [85.19247923316118, 27.974613337654045]]], [[[85.19471212205548, 27.97482316066538], [85.19470911680168, 27.975003617295478], [85.19491238074636, 27.975006285206], [85.19491538566223, 27.97482582855571], [85.19471212205548, 27.97482316066538]]], [[[85.19531890871919, 27.975011620126818], [85.19531590445132, 27.975192076812444], [85.19551916881738, 27.975194743842923], [85.1955221727473, 27.975014287137117], [85.19531890871919, 27.975011620126818]]], [[[85.1965354910648, 27.97520807449415], [85.19673875559766, 27.975210739724155], [85.19674175750002, 27.975030282897304], [85.19653849330507, 27.975027617687463], [85.1965354910648, 27.97520807449415]]], [[[85.19693901856613, 27.975393861496084], [85.19714228349252, 27.9753965261461], [85.19714828597327, 27.975035612416754], [85.19694502172275, 27.975032947807062], [85.19693901856613, 27.975393861496084]]], [[[85.19572543680326, 27.975016953847337], [85.19571942959146, 27.97537786729428], [85.19592269435108, 27.975380533744783], [85.195928700887, 27.97501962025748], [85.19572543680326, 27.975016953847337]]], [[[85.19612896208243, 27.975202743133895], [85.19612595913848, 27.975383199895205], [85.19653248879672, 27.975388531295806], [85.1965354910648, 27.97520807449415], [85.19612896208243, 27.975202743133895]]], [[[85.19286169219636, 27.976062331181417], [85.19285868370629, 27.97624278759447], [85.19326521585356, 27.976248128799707], [85.19326822366774, 27.97606767234624], [85.19286169219636, 27.976062331181417]]], [[[85.1934714894452, 27.97607034247852], [85.19346547446489, 27.976431255420835], [85.19366874094607, 27.97643392529344], [85.19367475525051, 27.97607301231071], [85.1934714894452, 27.97607034247852]]], [[[85.1938750142833, 27.976256138356895], [85.19387200745511, 27.976436594865945], [85.1942785405567, 27.976441933110685], [85.19428154670898, 27.976261476561238], [85.1938750142833, 27.976256138356895]]], [[[85.19468807924598, 27.976266813565214], [85.19468507376959, 27.976447270155052], [85.19509160709379, 27.97645260599904], [85.19509461189428, 27.976272149368825], [85.19468807924598, 27.976266813565214]]], [[[85.19529787826016, 27.9762748168205], [85.19529487379762, 27.976455273470897], [85.19549814052927, 27.97645794064266], [85.19550114465386, 27.97627748397208], [85.19529787826016, 27.9762748168205]]], [[[85.19224286660288, 27.976595686225647], [85.19244613325493, 27.976598357919013], [85.1924491424766, 27.97641790155646], [85.19224587616252, 27.976415229883308], [85.19224286660288, 27.976595686225647]]], [[[85.19163005621262, 27.976768125621614], [85.191833323119, 27.976770798235485], [85.1918363333824, 27.97659034193862], [85.19163306681395, 27.97658766934498], [85.19163005621262, 27.976768125621614]]], [[[85.18736447531973, 27.976531475557035], [85.18736145762144, 27.976711931408435], [85.18756472394188, 27.976714610324287], [85.18756774130222, 27.97653415445261], [85.18736447531973, 27.976531475557035]]], [[[85.19203959997871, 27.976593014232183], [85.19203659005328, 27.976773470549265], [85.1922398570154, 27.97677614256295], [85.19224286660288, 27.976595686225647], [85.19203959997871, 27.976593014232183]]], [[[85.18756472394188, 27.976714610324287], [85.18756170655358, 27.976895066190927], [85.18837477346645, 27.97690577893445], [85.18837778950292, 27.97672532298675], [85.18797125666654, 27.976719967255704], [85.18797427335099, 27.976539511343493], [85.18756472394188, 27.976714610324287]]], [[[85.19122051117832, 27.976943235724725], [85.19142377836691, 27.97694590895902], [85.19142678933409, 27.976765452707646], [85.19122352248344, 27.976762779493576], [85.19122051117832, 27.976943235724725]]], [[[85.19081096487581, 27.9771183445415], [85.19101423234662, 27.97712101839622], [85.19101724401759, 27.976940562190336], [85.19081397688473, 27.97693788835585], [85.19081096487581, 27.9771183445415]]], [[[85.18837477346645, 27.97690577893445], [85.18837175740204, 27.97708623487712], [85.18857502453803, 27.977088912333024], [85.18857804026447, 27.976908456370094], [85.18837477346645, 27.97690577893445]]], [[[85.19060769743288, 27.977115670386674], [85.19060468505812, 27.977296126547056], [85.190807952839, 27.977298800722114], [85.19081096487581, 27.9771183445415], [85.19060769743288, 27.977115670386674]]], [[[85.18857200878367, 27.97726936829092], [85.18918181137299, 27.97727739891882], [85.18918482611348, 27.977096942900154], [85.18857502453803, 27.977088912333024], [85.18857200878367, 27.97726936829092]]], [[[85.1891787966046, 27.977457854932446], [85.18938206452816, 27.977460531228466], [85.1893850789586, 27.977280075194585], [85.18918181137299, 27.97727739891882], [85.1891787966046, 27.977457854932446]]], [[[85.18958231835926, 27.977643663273472], [85.19059866022492, 27.97765703885271], [85.19060468505812, 27.977296126547056], [85.19040141730513, 27.977293452071898], [85.1903984045645, 27.977473908207003], [85.189788600459, 27.977465882920193], [85.1897916142135, 27.97728542684581], [85.1895883465721, 27.97728275117025], [85.18958231835926, 27.977643663273472]]]]}, "properties": {"class": "Inundated", "min_depth_m": 0.1, "model": "sph", "area_km2": 1.97480000000012}}]}